"GUID","Name","Address","Neighbourhood","Latitude","Longitude","Dogs","Leashed","Restrictions","Notes"
"4bcb2da1df45c","A.Y. Jackson","1102 Bridge","Nepean","45.2284811","-75.6832434","","","",""
"4bcb2da1df472","Acres","2193 East Acres","Gloucester","45.4462399","-75.5883279","1","1","",""
"4bcb2da1df47e","Agincourt","1269 Albany Drive","Ottawa","45.3597797","-75.7545663","0","","",""
"4bcb2da1df489","Ainsley","1650 Ainsley Drive","Ottawa","45.3586764","-75.7488522","0","","",""
"4bcb2da1df496","Aladdin","3939 Albion","Gloucester","45.3402704","-75.6352159","1","1","",""
"4bcb2da1df4a1","Alda Burt/Dempsey Cc","1816 St. Laurent Boulevard/Russell","Ottawa","45.370596","-75.460888","1","","",""
"4bcb2da1df4ab","Alexander","960 Silver Street","Ottawa","45.3801689","-75.7306087","1","","",""
"4bcb2da1df4b5","Alexander Grove","10 Warner Colpitts","Goulbourn","45.262189","-75.9255078","1","1","",""
"4bcb2da1df4c0","Alice Wilson Woods","5590 Campeau","Kanata","45.3170138","-75.9003783","1","1","",""
"4bcb2da1df4cb","Allenby","7 Allenby","Kanata","45.3488275","-75.9294243","1","1","",""
"4bcb2da1df4d6","Alta Vista","1309 Randall Avenue","Ottawa","45.3828459","-75.6665315","1","","1","Dogs allowed north of field house"
"4bcb2da1df4e3","Alvin Heights","349 Claremont Drive/London Terrace","Ottawa","45.451756","-75.650013","0","","",""
"4bcb2da1df4ee","Amberway","11 Denham","Goulbourn","45.2765305","-75.9197276","1","1","",""
"4bcb2da1df4f9","Amberwood Pathway","72 Trailway","Goulbourn","45.2667321","-75.9130635","1","","",""
"4bcb2da1df503","Ambleside","1083 Ambleside Drive","Ottawa","45.373025","-75.7802702","1","","",""
"4bcb2da1df50d","Andrew Haydon","3127 Carling","Nepean","45.3518231","-75.8127972","1","1","",""
"4bcb2da1df517","Andy Shields","1448 Meadow","Osgoode","45.2622726","-75.5568202","0","","",""
"4bcb2da1df522","Anthony Vincent (Bedford)","14a Bedford Crescent","Ottawa","45.453823","-75.6595512","1","","1","Dogs allowed in park’s open space"
"4bcb2da1df52d","Apollo Crater","600 Apollo Way","Cumberland","45.4761594","-75.4884726","1","","",""
"4bcb2da1df538","Appaloosa","37 Appaloosa Dr.","Kanata","45.2968801","-75.8685617","1","1","",""
"4bcb2da1df542","Appleford","1879 Appleford","Gloucester","45.4402318","-75.5994812","1","1","",""
"4bcb2da1df54d","Applewood","134 Begonia Avenue","Ottawa","45.3885284","-75.6688052","1","","",""
"4bcb2da1df558","Arbeatha","105 Arbeatha","Nepean","45.3160784","-75.8227159","1","1","",""
"4bcb2da1df562","Arboretum","Prince of Wales Dr","Ottawa","45.395506","-75.711898","1","1","",""
"4bcb2da1df56d","Arbuclle","134 Hamilton","Goulbourn","45.1892849","-75.8428726","","","",""
"4bcb2da1df578","Arlington Mini","165 Arlington Avenue","Ottawa","45.4080791","-75.6975156","0","","",""
"4bcb2da1df581","Arlington Woods","270 Mcclellan","Nepean","45.3214484","-75.7837183","1","","",""
"4bcb2da1df58b","Armstrong (Kanata)","19 Penfield","Kanata","45.3256028","-75.8924278","1","1","",""
"4bcb2da1df596","Armstrong (Ottawa)","69 Armstrong","Ottawa","45.4054013","-75.7242753","","","",""
"4bcb2da1df5a0","Arnold","45 Arnold","Nepean","45.3129515","-75.8248822","1","","",""
"4bcb2da1df5ab","Arnott","691 Hartman Crescent","Ottawa","45.3613587","-75.6809552","1","","",""
"4bcb2da1df5b6","Ascot","10 Ascot Ave","Nepean","45.3226014","-75.8177432","1","1","",""
"4bcb2da1df5bf","Aston Woods","1245 Upton","Rideau","45.1750917","-75.6351571","1","1","",""
"4bcb2da1df5ca","Athans","3136 Conroy","Gloucester","45.3750469","-75.6253838","1","1","",""
"4bcb2da1df5d4","Baden","3900 Autumnwood","Gloucester","45.3406826","-75.6400075","1","1","",""
"4bcb2da1df5df","Bairds","2388 Fitzroy","West Carleton","45.4713853","-76.2147256","1","1","",""
"4bcb2da1df5ea","Balena","1640 Devon Streeta","Ottawa","45.4055653","-75.6430625","1","","1","Dogs allowed in open space, on asphalt parking and on dirt path"
"4bcb2da1df5f5","Ballantyne","31 Hawthorne Avenue","Ottawa","45.4120642","-75.6819484","1","","",""
"4bcb2da1df611","Banner","90 Banner","Nepean","45.3322638","-75.7940293","0","","",""
"4bcb2da1df61c","Bannockburn","1557 Landel","Kanata","45.3605874","-75.9793185","1","1","",""
"4bcb2da1df627","Banyon","70 Abaca","Goulbourn","45.266452","-75.9434128","1","1","",""
"4bcb2da1df631","Barnabe","1797 Des Epinettes","Gloucester","45.461369","-75.5078971","1","1","",""
"4bcb2da1df63c","Barnett","1170 Barnett","Cumberland","45.5153458","-75.4004181","1","1","",""
"4bcb2da1df647","Barney Mccarney Landing","5671 South Island","Rideau","45.2217371","-75.6710739","1","1","",""
"4bcb2da1df651","Baroness","2 Crestway","Gloucester","45.2864426","-75.7055789","1","1","",""
"4bcb2da1df65c","Barrington","1692 Barrington","Gloucester","45.456624","-75.5196857","1","1","",""
"4bcb2da1df670","Barry Mullen","152 Grandview","Nepean","45.3612049","-75.8567542","1","","",""
"4bcb2da1df67b","Barwell","921 Alenmede Crescent","Ottawa","45.3505303","-75.8000199","0","","",""
"4bcb2da1df686","Bateman","24 Bateman","Nepean","45.3268214","-75.7746516","0","","",""
"4bcb2da1df690","Bathgate","724 Bathgate Drive","Ottawa","45.4429666","-75.6236453","1","1","",""
"4bcb2da1df69b","Bayshore","175 Woodridge","Nepean","45.3484666","-75.8129644","0","","",""
"4bcb2da1df6a5","Bayview","128 Bayview Road","Ottawa","45.4075503","-75.7233504","0","","",""
"4bcb2da1df6b0","Beacon Hill Learning Centre","2379 Ogilvie","Gloucester","45.4555433","-75.5985728","1","1","",""
"4bcb2da1df6bb","Beacon Hill North Recreation Centre","2132 Radford","Gloucester","45.4584628","-75.5991279","1","1","",""
"4bcb2da1df6c6","Bearbrook Cc","8720 Russell","Cumberland","45.3841462","-75.337016","1","1","",""
"4bcb2da1df6d0","Beaton","70 Castlefrank Rd","Kanata","45.2947082","-75.8849038","1","1","",""
"4bcb2da1df6db","Beauclaire","947 Beauclaire","Cumberland","45.4863013","-75.528478","1","","",""
"4bcb2da1df6e5","Beaufort","56 Beaufort Dr.","Kanata","45.3110926","-75.8922652","1","1","",""
"4bcb2da1df6f0","Beaverbrook","2500 Campeau","Kanata","45.3216376","-75.8950255","1","1","",""
"4bcb2da1df6fb","Bedford","14 Bedford","Ottawa","45.453823","-75.6595512","","","",""
"4bcb2da1df709","Beechcliffe","2 Beechcliffe","Nepean","45.334116","-75.7559274","0","","",""
"4bcb2da1df714","Bel-Air","2149 Berwick Avenue","Ottawa","45.3571887","-75.7622486","0","","",""
"4bcb2da1df71e","Bell","50 Cassidy","Nepean","45.3254703","-75.8073957","1","1","",""
"4bcb2da1df729","Bell Arena","50 Cassidy","Nepean","45.3254703","-75.8073957","0","","",""
"4bcb2da1df733","Bell Arena","50 Cassidy Rd","Nepean","45.3254703","-75.8073957","1","1","1","Pathway only"
"4bcb2da1df73e","Bella Vista","1541 Carino","Cumberland","45.5113369","-75.4582763","1","1","",""
"4bcb2da1df749","Bella Vista","1541 Carino","Cumberland","45.5113369","-75.4582763","","","",""
"4bcb2da1df753","Belleview Manor","1520 Caldwell Avenue","Ottawa","45.3722085","-75.7373367","0","","",""
"4bcb2da1df75e","Bellfield","18 Bellfield","Nepean","45.3481829","-75.800946","1","1","",""
"4bcb2da1df76c","Ben Franklin (East)","180 Knoxdale","Nepean","45.3256923","-75.7718305","1","1","",""
"4bcb2da1df777","Ben Franklin (West)","24 Gibbard","Nepean","45.3250315","-75.7746187","1","1","",""
"4bcb2da1df782","Ben Franklin Place","101 Centrepointe","Nepean","45.344477","-75.762108","1","1","",""
"4bcb2da1df78d","Berrigan Woods","70 Berrigan","Nepean","45.276223","-75.7452715","1","","",""
"4bcb2da1df797","Berry Glen (Bren Maur)","36 Berry Glen","Gloucester","45.267295","-75.712027","1","1","",""
"4bcb2da1df7a2","Beryl Gaffney","3691 Prince of Wales","Nepean","45.2581714","-75.7088283","1","","",""
"4bcb2da1df7ad","Besserer","232 Rideau Place","Ottawa","45.4334016","-75.6726138","1","","",""
"4bcb2da1df7b7","Bethune","279 March","Kanata","45.3337798","-75.9019234","1","1","",""
"4bcb2da1df7c2","Betula","76 Florizel Ave","Nepean","45.3137182","-75.8370086","1","","",""
"4bcb2da1df7cc","Big Bird","936 Lawnsberry Dr.","Cumberland","45.4859875","-75.5106515","1","1","",""
"4bcb2da1df7d7","Bilberry","6620 Bilberry","Cumberland","45.4788863","-75.5300465","1","1","",""
"4bcb2da1df7e2","Billings","495 Billings Avenue","Ottawa","45.3953699","-75.6490018","1","","",""
"4bcb2da1df7ed","Billy Bishop","1 Bishops Mills","Kanata","45.3202272","-75.8933239","1","1","",""
"4bcb2da1df7f8","Bingham","145 Cathcart Street","Ottawa","45.4333871","-75.6953291","0","","",""
"4bcb2da1df803","Birdland","3 Whippoorwill","Gloucester","45.4516461","-75.6145275","1","1","",""
"4bcb2da1df80d","Black Tern","53 Black Tern Cres.","Kanata","45.2945427","-75.8543955","1","1","",""
"4bcb2da1df818","Blackburn","202 Glen","Gloucester","45.1622106","-76.122503","1","1","",""
"4bcb2da1df822","Blair (Winding Way)","56 Winding Way","Gloucester","45.2859789","-75.6993831","1","1","",""
"4bcb2da1df82d","Blanchfield School","3193 Blanchfield","Osgoode","45.1626823","-75.5703218","0","","",""
"4bcb2da1df83c","Bluegrass","59 Bluegrass Dr.","Kanata","45.284344","-75.8610501","1","1","",""
"4bcb2da1df847","Bonaventure","1759a Bonaventure","Cumberland","45.4722579","-75.5346435","1","1","",""
"4bcb2da1df852","Bordeleau","349 Bruyere Street/Rose","Ottawa","45.4351","-75.688387","1","","",""
"4bcb2da1df85c","Borden Farm","35 Overlake","Nepean","45.3471907","-75.725112","1","","",""
"4bcb2da1df867","Borduas Court Parkette","8 Borduas","Kanata","45.3285078","-75.9102769","1","1","",""
"4bcb2da1df872","Boyce","9 Boycrest Dr","Nepean","45.305513","-75.706975","0","","",""
"4bcb2da1df880","Bracken Field","5469 Riverside","Rideau","45.2319054","-75.6837106","1","1","",""
"4bcb2da1df88b","Bramble Lane - Ridgewood Tot Lot","3366 Bramble","Osgoode","45.1437288","-75.5949785","0","","",""
"4bcb2da1df896","Branchwood","23 Branchwood","Gloucester","45.2775841","-75.7063921","1","1","",""
"4bcb2da1df8a0","Brantwood","120 Clegg Street","Ottawa","45.4068112","-75.6750559","0","","",""
"4bcb2da1df8ab","Brewer","100 Brewer Way","Ottawa","45.3870069","-75.6913635","1","","1","Dogs allowed south of the berm, parking lot and on the path from Cameron Street down towards the Rideau River"
"4bcb2da1df8b6","Briargreen","9 Parkfield","Nepean","45.3366387","-75.7782794","0","","",""
"4bcb2da1df8c1","Bridlewood","75 Bridlewood Dr.","Kanata","45.2942239","-75.8649207","1","1","",""
"4bcb2da1df8cc","Brighton Beach","30 Brighton Avenue","Ottawa","45.3970926","-75.6749847","1","1","1","Asphalt path only"
"4bcb2da1df8d6","Britannia","2805 Carling Avenue","Ottawa","45.3589211","-75.7965445","1","","1","Dogs allowed north-east corner"
"4bcb2da1df8e2","Bronson","Bronson/Commissioner","Ottawa","45.397236","-75.697475","1","1","",""
"4bcb2da1df8ed","Brookside","26 Brookstone","Gloucester","45.2787939","-75.7066347","1","1","",""
"4bcb2da1df8f8","Brown’s Inlet","65 Craig Street","Ottawa","45.396954","-75.6915215","1","1","1","Leash required: April 1 to October 31, Monday to Friday, 9:00 a.m. to 11:00 a.m. and 2:00 p.m. to 7:00 p.m; Saturday and Sunday, 11:00 a.m. to 7:00 p.m. No dogs on toboggan hill from December 1 to April 1"
"4bcb2da1df903","Bruce Pit","Cedarview Rd","Nepean","45.270329","-75.774906","1","","",""
"4bcb2da1df90d","Bruce Timmermans","1497 Gilles","Ottawa","45.3813187","-75.6714718","","","",""
"4bcb2da1df918","Brucelands","2960 Baseline","Nepean","45.3353395","-75.800899","1","1","",""
"4bcb2da1df923","Bruff","Lorry Greenberg Drive","Ottawa","45.36523","-75.627887","0","","",""
"4bcb2da1df92d","Bryanston Gate","23 Alon","Goulbourn","45.2788292","-75.9273737","1","1","",""
"4bcb2da1df938","Burnett/Escarpment","135 Sherway Dr.","Nepean","45.2748415","-75.7577606","1","","",""
"4bcb2da1df942","Burnford","28 Glencoe","Nepean","45.325353","-75.7817011","0","","",""
"4bcb2da1df94d","Bush","41 Bearbrook","Gloucester","45.4377226","-75.5675956","1","1","",""
"4bcb2da1df958","Butterfly","711 Long Point","Gloucester","45.3196973","-75.5987773","1","1","",""
"4bcb2da1df963","Byrd","128 Chimo Dr.","Kanata","45.3096847","-75.8944403","1","1","",""
"4bcb2da1df96d","Byron Strip","Byron Avenue","Ottawa","45.389004","-75.758934","1","1","",""
"4bcb2da1df97b","Cahill","1063 Cahill Avenue West","Ottawa","45.3533688","-75.6612113","1","","",""
"4bcb2da1df986","Calzavara","1602 Blohm","Ottawa","45.374751","-75.6087868","1","","",""
"4bcb2da1df990","Canterbury","2185 Arch Street/Canterbury","Ottawa","45.3908459","-75.6307769","1","","1","Dogs allowed area north of arena including sports field and ball diamond"
"4bcb2da1df99b","Capital","10 Ella Street","Ottawa","45.3986558","-75.6931069","0","","",""
"4bcb2da1df9a6","Cardinal Farms","2001 Wildflower","Cumberland","45.4609559","-75.5052512","1","1","",""
"4bcb2da1df9b0","Cardinal Glen","Dunbarton Court","Ottawa","45.445229","-75.651599","0","","",""
"4bcb2da1df9bb","Carillon","246","Vanier","45.449638","-75.6801814","0","","",""
"4bcb2da1df9c5","Carleton Heights","1665 Apeldoorn Avenue/Normandy","Ottawa","45.361599","-75.706966","1","","",""
"4bcb2da1df9d0","Carp Memorial Hall","3739 Carp","West Carleton","45.322545","-76.028976","1","1","",""
"4bcb2da1df9e0","Carriere","6601 Carriere","Gloucester","45.4654864","-75.5273613","1","1","",""
"4bcb2da1df9eb","Carrol Homestead/Upper Huntley Community Centre","3447 Old Almonte","West Carleton","45.259712","-76.0602598","1","1","",""
"4bcb2da1df9f6","Carruthers/Stirling","34 Stirling Avenue","Ottawa","45.4053804","-75.7277188","0","","",""
"4bcb2da1dfa01","Carson","704 Carson Road","Ottawa","45.4431097","-75.6292878","0","","",""
"4bcb2da1dfa0c","Caserta","1369 Caserta","Cumberland","45.4867505","-75.4818692","","","",""
"4bcb2da1dfa16","Casgrain","78 Leacock","Kanata","45.325678","-75.8972499","1","1","",""
"4bcb2da1dfa21","Castlewood","1968 Castlewood Avenue/Killarney","Ottawa","45.367204","-75.75942","1","","",""
"4bcb2da1dfa2c","Cathcart","219 Cathcart Street","Ottawa","45.4344686","-75.6927089","1","","",""
"4bcb2da1dfa36","Cathedral","6347 Viseneau","Gloucester","45.4537324","-75.5228259","1","1","",""
"4bcb2da1dfa41","Cattail Creek","38 Chimo Dr.","Kanata","45.3112787","-75.8873391","1","1","",""
"4bcb2da1dfa4c","Cavanagh Community Centre","8930 Flewellyn","Goulbourn","45.1586199","-76.0296798","","","",""
"4bcb2da1dfa59","Cecil Morrison","1332 Avenue N/Avenue O","Ottawa","45.4186662","-75.6450922","0","","",""
"4bcb2da1dfa63","Cedar Mills","1620 Cedar Mills","Gloucester","45.4609724","-75.5228362","1","1","",""
"4bcb2da1dfa6f","Cedarcroft","1200 Cedarcroft","Gloucester","45.4240075","-75.6137171","1","1","",""
"4bcb2da1dfa79","Cedardale","29 Mary","Gloucester","45.3212096","-75.6920959","1","1","",""
"4bcb2da1dfa84","Cedarhill Estates","23 Cedarhill","Nepean","45.2863353","-75.8002735","0","","",""
"4bcb2da1dfa8f","Cenotaph Site in North Gower","6602 Fourth Line","Rideau","45.1315591","-75.7162522","1","1","",""
"4bcb2da1dfa99","Centennial","5572 Doctor Leach","Rideau","45.2220071","-75.6858095","1","1","",""
"4bcb2da1dfaa4","Central","19 Clemow Avenue","Ottawa","45.4066662","-75.6901715","1","","1","Dogs on leash between Bank and Clemow, April 1 to October 31, 7 days per week, noon to 4 pm"
"4bcb2da1dfaaf","Centre","17 Centre","Gloucester","44.9811319","-75.7965023","1","1","",""
"4bcb2da1dfab9","Centrepointe","114 Centrepointe","Nepean","45.3443413","-75.7643349","1","1","1","Pathways only"
"4bcb2da1dfac4","Chamberlain","88 Chamberlain Avenue","Ottawa","45.405943","-75.6972243","1","","1","Dogs allowed between Lyon and Glendale"
"4bcb2da1dfacf","Champagne","1861 Markwell","Gloucester","45.4541158","-75.5151403","1","1","",""
"4bcb2da1dfada","Champagne Bath","321 King Edward","Ottawa","45.4303738","-75.6869627","","","",""
"4bcb2da1dfae5","Champlain","140 Carleton Avenue","Ottawa","45.404448","-75.7447324","0","","",""
"4bcb2da1dfaf2","Chanonhouse","28 Chanonhouse","Goulbourn","45.1928347","-75.8245701","","","",""
"4bcb2da1dfafd","Chapel Hill","1550 Forest Valley","Gloucester","45.4515542","-75.5380996","1","1","",""
"4bcb2da1dfb07","Chapman Mills","139 Windhurst","Nepean","45.2787599","-75.716117","0","","",""
"4bcb2da1dfb12","Charing","37 Chartwell","Nepean","45.3327982","-75.7670068","1","1","",""
"4bcb2da1dfb1d","Charlemagne","1200 Charlemagne","Cumberland","45.4773969","-75.4939039","1","","",""
"4bcb2da1dfb27","Chaudiere","68 Elm Street","Ottawa","45.4100735","-75.7137283","0","","",""
"4bcb2da1dfb32","Chris’s Field","5545 South River","Rideau","45.2271066","-75.6793596","1","1","",""
"4bcb2da1dfb3c","City Centre","1800 City","Gloucester","45.4288688","-75.615867","1","1","",""
"4bcb2da1dfb47","City View","13 Canter","Nepean","45.3520929","-75.7373745","1","","",""
"4bcb2da1dfb55","Clare Gardens","269 Clare Street","Ottawa","45.3878514","-75.7477741","0","","",""
"4bcb2da1dfb5f","Clarence Maheral","170 Castlefrank Rd","Kanata","45.2901107","-75.8799404","1","1","",""
"4bcb2da1dfb6b","Clark Woods","1070 Forest Lea","Cumberland","45.4172515","-75.4305991","1","","",""
"4bcb2da1dfb75","Clarke Fields","93 Houlahan","Nepean","45.2619249","-75.7673188","0","","",""
"4bcb2da1dfb80","Claudette Cain","660 River","Gloucester","45.2730429","-75.6977786","1","0","1","Leash required north of field house"
"4bcb2da1dfb8f","Cline","1148 Cline Crescent","Ottawa","45.3628137","-75.7578042","1","1","",""
"4bcb2da1dfb9a","Colonnade","2 Colonnade","Nepean","45.3402637","-75.7268567","1","","",""
"4bcb2da1dfba5","Combermere","11 Combermere","Gloucester","45.4599145","-75.6136348","1","1","",""
"4bcb2da1dfbaf","Commissioner","Commissioner Street","Ottawa","45.415998","-75.709088","1","1","",""
"4bcb2da1dfbba","Confederation","2350 Russell Road","Ottawa","45.3933414","-75.6083648","1","1","",""
"4bcb2da1dfbc5","Connaught","993 Connaught Avenue/Severn","Ottawa","45.35689","-75.782793","1","","",""
"4bcb2da1dfbd2","Conroy","1300 Conroy/Blohm","Ottawa","45.3683938","-75.6187728","1","","",""
"4bcb2da1dfbdd","Conroy Pit","Conroy/Hunt Club","Ottawa","45.354718","-75.646402","1","","",""
"4bcb2da1dfbe8","Constance Bay and Torbolton Forest","262 Len Purcell","West Carleton","45.5006958","-76.0920427","1","1","",""
"4bcb2da1dfbf3","Copeland","1609 Navaho Drive","Ottawa","45.3630712","-75.7486028","0","","",""
"4bcb2da1dfbfd","Corkstown","61 Corkstown","Nepean","45.346182","-75.8259485","1","1","",""
"4bcb2da1dfc08","Coronation","442 Coronation Avenue/Penhill","Ottawa","45.409009","-75.648236","1","","",""
"4bcb2da1dfc13","Country Estates Parkland","7821 Iveson","Osgoode","45.2694078","-75.516591","0","","",""
"4bcb2da1dfc1d","Country Place","83 Amberwood Cres.","Nepean","45.3205351","-75.707345","0","","",""
"4bcb2da1dfc28","Country Place Finger","36 Amberwood Cres.","Nepean","45.3213471","-75.7126636","1","","",""
"4bcb2da1dfc33","Coyote Run","367 West Ridge","Goulbourn","45.2489982","-75.9257878","1","","",""
"4bcb2da1dfc4c","Craig","16 Leacock","Kanata","45.3246941","-75.9041376","1","1","",""
"4bcb2da1dfc3d","Craig Henry","135 Craig Henry","Nepean","45.3329511","-75.7755544","1","1","",""
"4bcb2da1dfc57","Craighurst Drive","6567 Craighurst","Rideau","45.1315648","-75.7235779","1","1","",""
"4bcb2da1dfc63","Crantham","11 Crantham","Goulbourn","45.2625662","-75.9366481","1","1","",""
"4bcb2da1dfc6e","Cresthaven","28 Cresthaven","Gloucester","45.28415","-75.7070608","1","1","",""
"4bcb2da1dfc78","Crestview","58 Fieldrow","Nepean","45.3442254","-75.7401125","1","1","",""
"4bcb2da1dfc83","Crossing Bridge","27 Hobin","Goulbourn","45.262346","-75.9322653","1","1","",""
"4bcb2da1dfc8d","Cumberland Mini","187 Bruyere Street/Cumberland","Ottawa","45.427443","-75.306022","0","","",""
"4bcb2da1dfc98","Cummings","861 Cummings Avenue/Rainsford","Ottawa","45.4358044","-75.6356038","0","","",""
"4bcb2da1dfca3","Cummings (Gloucester)","980 Cummings","Gloucester","45.4313544","-75.6345303","1","1","",""
"4bcb2da1dfcae","Cunningham","319 Marshall Court","Ottawa","45.3898033","-75.6587199","1","","",""
"4bcb2da1dfcb8","Cypress Gardens","33 Elm","Goulbourn","45.2493822","-75.9180603","1","1","",""
"4bcb2da1dfcc3","Cypress Gardens","33 Elm","Goulbourn","45.2493822","-75.9180603","","","",""
"4bcb2da1dfcce","Cyrville","1420 Meadowbrook","Gloucester","45.4189654","-75.6081292","1","1","",""
"4bcb2da1dfcd9","D.a. Moodie","595 Moodie","Nepean","45.3115725","-75.827077","1","","",""
"4bcb2da1dfce4","Dale","1590 Alta Vista Drivey","Ottawa","45.4079697","-75.6585188","1","","",""
"4bcb2da1dfcef","Dalhousie Community Centre","755 Somerset","Ottawa","45.410189","-75.7091498","","","",""
"4bcb2da1dfcf9","Dalhousie South","343 Bell Street","Ottawa","45.4020394","-75.7031209","0","","","Dogs allowed south of the berm, parking lot and on the path from Cameron Street down towards the Rideau River"
"4bcb2da1dfd04","Dante","17 Dante Ave","Nepean","45.3291389","-75.8118993","1","1","",""
"4bcb2da1dfd0f","Dante","17 Dante","Nepean","45.3291389","-75.8118993","0","","",""
"4bcb2da1dfd19","David Bartlett","5201 Mclean","Rideau","45.2446687","-75.7018348","1","1","",""
"4bcb2da1dfd24","Davidson","5 Ryerson","Nepean","45.2654982","-75.7154439","0","","",""
"4bcb2da1dfd2f","Davis","4 Davis Ave.","Kanata","45.3049258","-75.9050389","1","1","",""
"4bcb2da1dfd39","Daybreak","38 Daybreak","Gloucester","45.2820959","-75.7049382","1","1","",""
"4bcb2da1dfd48","Decarie","7883 Decarie","Cumberland","45.4847047","-75.5284324","1","1","",""
"4bcb2da1dfd58","Deer Run","272 West Ridge","Goulbourn","45.2562162","-75.9342725","1","","",""
"4bcb2da1dfd63","Deevy Pines","65 Stonehaven Dr.","Kanata","45.2910101","-75.856563","1","1","",""
"4bcb2da1dfd6e","Delorme","6591 Delorme","Gloucester","45.457087","-75.5096599","1","1","",""
"4bcb2da1dfd79","Des Pionniers","1880 Carrigan","Cumberland","45.4714129","-75.4815446","1","1","",""
"4bcb2da1dfd83","Diceman","30 Diceman","Gloucester","45.4364408","-75.5612409","1","1","",""
"4bcb2da1dfd8e","Dick Bell","3259 Carling","Nepean","45.3510337","-75.8266739","1","1","",""
"4bcb2da1dfd98","Diefenbunker Baseball Diamond","3911 Carp","West Carleton","45.322545","-76.028976","1","1","",""
"4bcb2da1dfda3","Dog Bone/Rickey Place","5 Morton Dr","Kanata","45.2891775","-75.8841009","1","1","",""
"4bcb2da1dfdae","Don Gamble Centre Andlaurent","515 Cote","Ottawa","45.4355216","-75.6467918","","","",""
"4bcb2da1dfdb8","Donland","23 Parker","Nepean","45.3404091","-75.7472965","0","","",""
"4bcb2da1dfdc6","Dorey","80 Mccurdy Dr.","Kanata","45.3028358","-75.903942","1","1","",""
"4bcb2da1dfdd1","Dosseter","72 Dosseter Way","Ottawa","45.388626","-75.64496","1","","",""
"4bcb2da1dfddc","Doug Frobel","16 Rowley","Nepean","45.3495208","-75.7413738","0","","",""
"4bcb2da1dfde6","Dr. John Hopps","300 Den Haag","Ottawa","45.441047","-75.6335631","","","",""
"4bcb2da1dfdf1","Drumlins","12 Drumlins","Gloucester","45.2744483","-75.7053564","1","1","",""
"4bcb2da1dfdfb","Duford E Centennial","1424 Duford","Cumberland","45.4726437","-75.5106152","","","",""
"4bcb2da1dfe06","Dumaurier","2850 Dumaurier Avenue/Pinecrest","Ottawa","45.350591","-75.790433","1","","",""
"4bcb2da1dfe11","Dundonald","516 Somerset Street West","Ottawa","45.4133234","-75.7012582","1","1","1","No dogs in play area"
"4bcb2da1dfe1b","Dunlop","15 Dunlop Crt.","Kanata","45.2976559","-75.8921949","1","1","",""
"4bcb2da1dfe26","Dunrobin Community Centre","1145 Thomas a. Dolan","West Carleton","45.4204838","-76.0232651","1","1","",""
"4bcb2da1dfe31","Dutchie’s Hole","154 Mann Avenue","Ottawa","45.4220813","-75.6697566","1","","",""
"4bcb2da1dfe3b","Dylan Way","31 Dylan Way","Nepean","45.2872146","-75.7129812","1","1","",""
"4bcb2da1dff47","EV Tremblay","108 Beech","Ottawa","45.4000195","-75.7115291","0","","",""
"4bcb2da1dfe46","East Bridle Path","4040 Bridle Path","Gloucester","45.3497","-75.6433475","1","1","",""
"4bcb2da1dfe51","Eastvale","740 Eastvale","Gloucester","45.4595712","-75.5962411","1","1","",""
"4bcb2da1dfe5c","Eccolands","334 River","Gloucester","45.3157162","-75.692481","1","1","",""
"4bcb2da1dfe67","Echo","6698 Marina","Rideau","45.1685024","-75.6396267","1","1","",""
"4bcb2da1dfe71","Ed Hollyer","125 Bishop Mills","Kanata","45.3333333","-75.9","1","1","",""
"4bcb2da1dfe7c","Edgehill","1264 Ridgemont Avenue/Edge Hill","Ottawa","45.3787367","-75.6642876","0","","",""
"4bcb2da1dfe86","Edgeware","70 Berrigan","Nepean","45.276223","-75.7452715","1","","",""
"4bcb2da1dfe91","Edward Craig","6480 Doctor Blair","Rideau","45.1362996","-75.7259679","1","1","",""
"4bcb2da1dfe9c","Edward Kidd Parkette","2306 Edward Kidd","Rideau","45.1385618","-75.722454","1","1","",""
"4bcb2da1dfea6","Edwards","1081 Yorks Corners","Osgoode","45.320175","-75.4645822","0","","",""
"4bcb2da1dfeb1","Eighth Line/Harkness","6020 Eighth Line","Gloucester","45.3653113","-75.4642041","1","1","",""
"4bcb2da1dfebe","Eldon Craig","8155 Eldo","Osgoode","45.2290247","-75.4740031","0","","",""
"4bcb2da1dfec9","Eleanor","26 Eleanor","Nepean","45.3634527","-75.7287965","0","","",""
"4bcb2da1dfed4","Elisha Scharf","30 Penfield","Kanata","45.3256251","-75.8920536","1","1","",""
"4bcb2da1dfede","Elizabeth Manley","1161 Blohm Drive","Ottawa","45.369073","-75.6197528","1","","1","No dogs on pool area, play area, ball diamond, tennis and basketball courts"
"4bcb2da1dfee9","Elmhurst","900 Tavistock Road","Ottawa","45.359709","-75.7844211","1","","",""
"4bcb2da1dfef4","Elmridge","1841 Elmridge","Gloucester","45.4428589","-75.6039662","1","1","",""
"4bcb2da1dfeff","Emerald Woods","3795 Alderwood","Gloucester","45.3453365","-75.6407921","1","1","",""
"4bcb2da1dff09","Emond","217 Emond","Vanier","45.4364289","-75.6652204","0","","",""
"4bcb2da1dff19","Entrance","2 Eaton St","Nepean","45.3264548","-75.8172948","0","1","",""
"4bcb2da1dff23","Ernest Smith","43 Bishops Mills","Kanata","45.3192144","-75.89213","1","1","",""
"4bcb2da1dff2e","Ernie Calcutt","759 Mooney’s Bay Place","Ottawa","45.3650593","-75.6854116","1","","",""
"4bcb2da1dff3d","Escarpment/Chimo","111 Chimo Dr.","Kanata","45.3095859","-75.8921073","1","1","",""
"4bcb2da1dff53","Evergreen","906 Denison Crescent","Ottawa","45.3744242","-75.7539041","1","","",""
"4bcb2da1dff5d","Fairfield","49 Appleford","Gloucester","45.4400975","-75.605671","1","1","",""
"4bcb2da1dff68","Fairlea","2989 Fairlea Crescent","Ottawa","45.3765443","-75.6408053","1","","",""
"4bcb2da1dff73","Fairmile Estates","2549 Donnelly","Rideau","45.0652367","-75.6620013","1","1","",""
"4bcb2da1dff7d","Fairmile View","2429 Fairmile","Rideau","45.0679252","-75.6496362","1","1","",""
"4bcb2da1dff88","Fairmile West","2511 Fairmile","Rideau","45.0646665","-75.655164","1","1","",""
"4bcb2da1dff92","Fairmont","265 Fairmont Avenue","Ottawa","45.3983911","-75.7197369","1","","1","No dogs north of courts"
"4bcb2da1dff9d","Fallingbrook","681 Deancourt","Cumberland","45.4805505","-75.4871639","1","1","",""
"4bcb2da1dffa8","Fallowfield/Lytle","4301 Fallowfield","Nepean","45.2722154","-75.7889179","0","","",""
"4bcb2da1dffb2","Farmstead Ridge","2448 Church","Rideau","45.1236432","-75.7206423","1","1","",""
"4bcb2da1dffbd","Father Richard Ward","1073 Chablis","Cumberland","45.4725586","-75.5523018","1","1","",""
"4bcb2da1dffc8","Featherstone","2330 Virginia Drive","Ottawa","45.385593","-75.6445877","1","","",""
"4bcb2da1dffd5","Feed Mill Creek","1080 Carp","Goulbourn","45.322545","-76.028976","1","","",""
"4bcb2da1dffdf","Ferdinand Walkway","5624 Ferdinand","Osgoode","45.1430594","-75.6011782","0","","",""
"4bcb2da1dffea","Fielding","591 Fielding Drive","Ottawa","45.3584941","-75.6840108","1","1","",""
"4bcb2da1dfff5","Finchley","7 Finchley Drive","Nepean","45.2781718","-75.7299724","0","","",""
"4bcb2da1dffff","Fisher","250 Holland Avenue","Ottawa","45.3958025","-75.7295972","1","1","",""
"4bcb2da1e0014","Fisher","250 Holland","Ottawa","45.3958025","-75.7295972","","","",""
"4bcb2da1e000a","Fisher Heights","26 Barlyn","Nepean","45.3661769","-75.72103","0","","",""
"4bcb2da1e001f","Fitzroy Harbour Community Centre and Campbell Bicentennial","100 Clifford Campbell","West Carleton","45.4699607","-76.2056545","1","1","",""
"4bcb2da1e002a","Flannery Green","2770 Flannery Drive","Ottawa","45.3637292","-75.6820236","1","","",""
"4bcb2da1e0035","Florizel","76 Florizel","Nepean","45.3137182","-75.8370086","0","","",""
"4bcb2da1e0040","Forbes","669 Paul Avenue","Ottawa","45.4393378","-75.6417682","0","","",""
"4bcb2da1e004b","Forest Creek","21 Amy","Goulbourn","45.2675117","-75.9086019","1","1","",""
"4bcb2da1e0055","Forest Glen","6091 Forestglen","Gloucester","45.4574691","-75.5445396","1","1","",""
"4bcb2da1e0060","Forest Glen","6091 Forestglen","Gloucester","45.4574691","-75.5445396","1","1","",""
"4bcb2da1e006b","Forestglade","62 Forestglade","Ottawa","45.376205","-75.6001339","","","",""
"4bcb2da1e0075","Forestview","74 Forestview","Nepean","45.3124423","-75.8342811","1","","",""
"4bcb2da1e0080","Four Seasons","4386 Spratt","Gloucester","45.2756896","-75.6891407","1","1","",""
"4bcb2da1e008b","Francois Dupont","778 Willow","Cumberland","45.487772","-75.5186172","1","1","",""
"4bcb2da1e0096","Frank Macdonald Ball","150 Castlefrank Rd.","Kanata","45.2916644","-75.8797166","1","1","",""
"4bcb2da1e00a0","Frank Ryan","950 Alpine Avenue","Ottawa","45.3569502","-75.7861501","1","0","1","Leashed on grass"
"4bcb2da1e00ab","Fred Barrett Arena/Leitrim","4561 Bank & Leitrim","Gloucester","45.331002","-75.599821","1","1","",""
"4bcb2da1e00b6","Friargate","6368 Friar Street","Cumberland","45.4711751","-75.5371951","1","","",""
"4bcb2da1e00c1","Fringewood","1 Poole Creek","Goulbourn","45.2753125","-75.9103458","1","","",""
"4bcb2da1e00cc","Fringewood","30 Sweetnam","Goulbourn","45.2766914","-75.915958","1","1","",""
"4bcb2da1e00f1","Fringewood - Phase 2","1 Poole Creek","Goulbourn","45.2753125","-75.9103458","","","",""
"4bcb2da1e00db","Fringewood Community Centre","14 Fringewood","Goulbourn","45.2788276","-75.9119136","1","1","",""
"4bcb2da1e00e6","Fringewood Open Space","43 Lazy Nol","Goulbourn","45.2765587","-75.9138754","1","","",""
"4bcb2da1e00fc","Furness","99 Furness","Gloucester","45.2849789","-75.7060982","1","1","",""
"4bcb2da1e0106","Galetta Community Centre","119 Darwin","West Carleton","45.4241539","-76.2587489","1","1","",""
"4bcb2da1e0111","Gardenway","2001 Gardenway","Cumberland","45.4646176","-75.4812068","1","","1","Leash required between 9 a.m. to 8 p.m."
"4bcb2da1e011c","Garfield","2019 Garfield Avenue","Ottawa","45.3654643","-75.7587804","1","","",""
"4bcb2da1e0127","Garneau","1567 Champneuf","Gloucester","45.4639882","-75.5210448","1","1","",""
"4bcb2da1e0132","Gateshead","2 Spalding","Kanata","45.3523905","-75.9309827","1","1","",""
"4bcb2da1e013d","General Burns","107 Chesterton","Nepean","45.3520727","-75.7216893","1","1","",""
"4bcb2da1e014a","Geoff Wightman","89 Leopolds Drive","Ottawa","45.3524653","-75.6953753","1","","",""
"4bcb2da1e0154","George C. Brown","Parkhaven","Ottawa","45.362981","-75.776013","0","","",""
"4bcb2da1e015f","George Mclean","5348 Mclean","Rideau","45.2353024","-75.6973803","1","1","",""
"4bcb2da1e016a","George R. Pushman","1270 Pebble Road","Ottawa","45.3594941","-75.6491375","1","","1","No dogs south of the path"
"4bcb2da1e0174","George Wilson","9 Virgil","Nepean","45.323903","-75.8237614","1","1","",""
"4bcb2da1e017f","Gerald Poulin","1899 Du Clairvaux","Gloucester","45.4432824","-75.5391012","1","1","",""
"4bcb2da1e0189","Gesner Court","25 Gesner Crt.","Kanata","45.2993061","-75.9028375","1","1","",""
"4bcb2da1e0194","Ghosh","Cellini","Ottawa","45.376144","-75.61199","1","1","",""
"4bcb2da1e019f","Gil O Julien","201 Donald Street","Ottawa","45.4274447","-75.6609853","0","","",""
"4bcb2da1e01ae","Gilbey","22 Leaver","Nepean","45.3615222","-75.7320758","1","","",""
"4bcb2da1e01b9","Gillespie","50 Gillespie Crescent/Riverside","Ottawa","45.3460141","-75.6881022","1","","",""
"4bcb2da1e01c4","Glabar","845 Hare Avenue/Rozel","Ottawa","45.371236","-75.763311","1","","",""
"4bcb2da1e01cf","Glebe Memorial","75 Glendale Avenue","Ottawa","45.4050716","-75.6982065","0","","",""
"4bcb2da1e01d9","Glen","1766 Grey Nuns","Cumberland","45.4685928","-75.5366627","1","1","",""
"4bcb2da1e01e4","Glen Carin Community Centre/Morrena","190 Morrena Rd.","Kanata","45.2964664","-75.8858482","1","1","",""
"4bcb2da1e01ef","Glenmanor","33 Glenmanor","Nepean","45.3409778","-75.7338224","0","","",""
"4bcb2da1e01f9","Gloucester Hydro","1078 Blair","Gloucester","45.4362004","-75.6096452","1","1","",""
"4bcb2da1e0204","Goddard Street","1304 Potter","Rideau","45.2169402","-75.6933594","1","1","",""
"4bcb2da1e020e","Goldridge","400 Goldridge","Kanata","45.3183793","-75.9226108","1","1","",""
"4bcb2da1e0219","Golflinks","50 Golflinks","Nepean","45.2578354","-75.7229045","1","1","",""
"4bcb2da1e0224","Goulbourn Lawn Bowling Club","2135 Huntley","Goulbourn","45.2314735","-75.9017615","","","",""
"4bcb2da1e022f","Goulbourn Rec Complex","1500 Shea","Goulbourn","45.2632498","-75.9060904","1","1","",""
"4bcb2da1e023a","Gow","9 Beaverbrook","Kanata","45.3275946","-75.903496","1","1","",""
"4bcb2da1e0245","Gowie","7 Gowie Dr.","Kanata","45.2938667","-75.8919101","1","1","",""
"4bcb2da1e0250","Grandeur","2915 Haughton Avenue/Grandeur","Ottawa","45.361618","-75.802716","1","1","",""
"4bcb2da1e025a","Grandmaitre Ecological Reserve","795 Trim Rd","Cumberland","45.5025549","-75.4864529","","","",""
"4bcb2da1e0265","Grange","22 Grange Avenue","Ottawa","45.4015117","-75.7379127","0","","",""
"4bcb2da1e026f","Grasshopper Hill","1609 Kilborn Avenue","Ottawa","45.3872091","-75.654574","0","","",""
"4bcb2da1e027a","Grassy Plains","85 Grassy Plains Dr.","Kanata","45.276799","-75.8508782","1","1","",""
"4bcb2da1e0285","Greely West","6485 Greely West","Osgoode","45.249503","-75.5978363","0","","",""
"4bcb2da1e0294","Greenbank","895 Greenbank","Nepean","45.2841644","-75.7545318","1","1","1","Pathway only"
"4bcb2da1e029f","Greenboro","Tapiola","Ottawa","45.363682","-75.641381","1","1","1","Off-leash on greenspace south of Johnston Road between Tapiola Crescent, north of path"
"4bcb2da1e02ab","Greenboro Pavilion","14 Tapiola Crescent","Ottawa","45.3631824","-75.6466831","1","","1","No dogs south of the path near lot"
"4bcb2da1e02b5","Greenbriar","1720 Dunrobin","Kanata","45.3801505","-75.9653676","1","1","",""
"4bcb2da1e02bf","Greenlawn","1145 Greenlawn","Ottawa","45.3668832","-75.7457436","0","","",""
"4bcb2da1e02c9","Greenpointe","480 Beatrice","Nepean","45.276375","-75.7262489","1","","",""
"4bcb2da1e02d4","Greens Creek Sliding Hill","Bearbrook","Gloucester","45.385481","-75.332599","1","1","",""
"4bcb2da1e02de","Grenfell Glen","53 Avonlea Rd.","Nepean","45.3147508","-75.7298228","0","","",""
"4bcb2da1e02e9","Grenon","1099 Grenon Avenue","Ottawa","45.35153","-75.7963451","1","","",""
"4bcb2da1e02f4","Grey Nuns","1595 Grey Nuns","Cumberland","45.4674576","-75.5417292","1","1","",""
"4bcb2da1e02fe","Grovehurst","100 Grovehurst","Gloucester","45.2778587","-75.7124691","1","1","",""
"4bcb2da1e0309","Half Moon Bay","3429 Greenbank","Nepean","45.2586682","-75.7397793","1","","",""
"4bcb2da1e0314","Hampton","645 Parkview Road/Irving Place","Ottawa","45.395764","-75.717082","1","1","",""
"4bcb2da1e0322","Harbour View","150 Harbour View","Gloucester","45.2695219","-75.7082004","1","1","",""
"4bcb2da1e032d","Harold Barnhart","5650 Scobie","Osgoode","45.232072","-75.6422726","0","","",""
"4bcb2da1e0339","Harrold Place","1 Harrold Place/Veteran","Ottawa","45.386065","-75.729522","1","","1","No dogs in square that includes pool"
"4bcb2da1e0344","Harry Craig Centre","6047 Prince of Wales","Rideau","45.1742213","-75.7164237","1","1","",""
"4bcb2da1e034e","Hartsmere","85 Hartsmere","Goulbourn","45.2456638","-75.9077197","1","","",""
"4bcb2da1e0359","Harwick","13 Harwick Cres","Nepean","45.3206782","-75.8248656","1","","",""
"4bcb2da1e0363","Harwood","20 Mowbray","Kanata","45.3889999","-75.9704997","1","1","",""
"4bcb2da1e036b","Hawthorne","2139 Tawney Road","Ottawa","45.393577","-75.6162539","1","","",""
"4bcb2da1e0375","Hawthorne Road Parkland","4198 Hawthorne","Gloucester","45.3316312","-75.5730438","1","1","",""
"4bcb2da1e0380","Hayward","79 Mccurdy Dr.","Kanata","45.3038667","-75.9031133","1","1","",""
"4bcb2da1e038b","Hazeldean Woods","89 Kakulu Rd.","Kanata","45.3063205","-75.892485","1","1","",""
"4bcb2da1e0396","Healey’s Heath","25 West Healey","Goulbourn","45.2350356","-75.9102757","","","",""
"4bcb2da1e03a1","Heart’s Desire Forest","3566 Woodroffe","Nepean","45.263872","-75.711831","1","","",""
"4bcb2da1e03ab","Heatherington","1560 Heatherington Road","Ottawa","45.3728207","-75.6468203","1","","",""
"4bcb2da1e03b6","Hemlock","361 Meadow Drive","Ottawa","45.4486768","-75.6500238","1","","",""
"4bcb2da1e03c1","Henry","1420 Mulligan","Gloucester","45.2931813","-75.6967056","1","1","",""
"4bcb2da1e03cc","Herb Johnson","7035 Cosgrove","Osgoode","45.2614101","-75.5654349","0","","",""
"4bcb2da1e03d7","Heritage","6160 Orleans","Gloucester","45.4526906","-75.5334997","1","1","",""
"4bcb2da1e03e7","Heron","999 Heron Road/Clover","Ottawa","45.3800722","-75.6767508","1","","1","Outside fenced area only"
"4bcb2da1e03f2","Hewitt","474 Pickford Dr.","Kanata","45.3075924","-75.887957","1","1","",""
"4bcb2da1e03fc","Hiawatha","6218 Voyageur","Cumberland","45.476113","-75.5497679","1","1","",""
"4bcb2da1e0419","Hillman Marsh","211 Hillman Marsh","Gloucester","45.3179609","-75.5983459","1","1","",""
"4bcb2da1e0428","Hillside","29 Larkspur","Nepean","45.3268249","-75.8135363","1","1","",""
"4bcb2da1e0433","Hillside Estates/Cumberland Village Heritage Museum","2660 Pierrette","Cumberland","45.5156233","-75.3837738","1","","",""
"4bcb2da1e043e","Hilltop","5425 Hilltop","Rideau","45.2322253","-75.6880995","1","1","",""
"4bcb2da1e0449","Hintonburg","46 Fairmont Avenue/Hamel","Ottawa","45.497146","-75.605598","0","","",""
"4bcb2da1e0458","Hintonburgh","1064 Wellington","Ottawa","45.4036572","-75.7247722","","","",""
"4bcb2da1e0462","Holly Acres","77 Varley","Kanata","45.3293977","-75.9093828","1","1","",""
"4bcb2da1e046d","Honey Gables","14 Ryeburn","Gloucester","45.2830475","-75.6956155","1","1","",""
"4bcb2da1e0478","Hope Cloutier","146 Castlefrank Rd.","Kanata","45.2918102","-75.8797649","1","1","",""
"4bcb2da1e0482","Horace","15 Horace Court","Nepean","45.2703852","-75.7601509","1","1","",""
"4bcb2da1e0492","Horace Seabrook","2346 Perkins","Rideau","45.1295848","-75.7173869","1","1","",""
"4bcb2da1e049d","Hornet’s Nest","1660 Bearbrook","Gloucester","45.4439559","-75.5759052","1","1","",""
"4bcb2da1e04a8","Houlahan","44 Tartan Dr.","Nepean","45.2675586","-75.7573904","1","1","",""
"4bcb2da1e04b3","Hummingbird","17 Upwood","Ottawa","45.3700743","-75.6240365","","","",""
"4bcb2da1e04bd","Huntley Community Centre","108 Juanita","West Carleton","45.3498438","-76.0400244","1","1","",""
"4bcb2da1e04c8","Huntsman","38 Huntsman Cres.","Kanata","45.27939","-75.8609147","1","1","",""
"4bcb2da1e04d2","Hutton","1855 Saunderon Drive","Ottawa","45.4008411","-75.6315265","1","","",""
"4bcb2da1e04dd","Insmill","67 Insmill","Kanata","45.3112988","-75.9271002","1","1","",""
"4bcb2da1e04e7","Inverness","76 Inverness","Nepean","45.3588428","-75.7211533","0","","",""
"4bcb2da1e04f2","Iona","223 Iona Street","Ottawa","45.3915045","-75.7421087","0","","",""
"4bcb2da1e04fc","Irwin Gate","345 Pickford Dr.","Kanata","45.3038909","-75.881624","1","1","",""
"4bcb2da1e050c","Isaie Savage","114 Saphir","Cumberland","45.4265015","-75.4856192","1","1","",""
"4bcb2da1e0517","Island in Rideau River","730 River","Gloucester","45.2637791","-75.7006832","1","1","",""
"4bcb2da1e0522","J.B. Potvin Arena","813 Shefford","Gloucester","45.4567459","-75.5917782","1","1","",""
"4bcb2da1e052c","Jack Charron Arena","10 Mckitrick Dr.","Kanata","45.2939248","-75.8844931","1","1","",""
"4bcb2da1e0537","Jack Charron Ball Diamond","89 Castlefrank Dr.","Kanata","45.2935695","-75.8825397","1","1","",""
"4bcb2da1e0542","Jack Purcell","320 Jack Purcell Lane","Ottawa","45.4157229","-75.6891851","1","","1","Southern section only. No dogs between 8 a.m. to 4 p.m., Monday to Friday."
"4bcb2da1e054c","Janeville","355 Iberville","Vanier","45.4369028","-75.654314","0","","",""
"4bcb2da1e0557","Jasmine","2040 Jasmine","Gloucester","45.4408819","-75.5943277","1","1","",""
"4bcb2da1e0562","Jeanne D’arc","1155 St. Moritz","Cumberland","45.4736221","-75.5452526","1","1","",""
"4bcb2da1e056c","Jeffrey Armstrong Memorial","449 Nicolls Island","Gloucester","45.2513233","-75.6975365","1","1","",""
"4bcb2da1e0577","Jill Brown","Richmond Road/Carling Avenue","Ottawa","45.359238","-75.79584","1","1","",""
"4bcb2da1e0584","Jim Durrell Recreation Complex","1265 Walkley","Ottawa","45.372304","-75.6587794","","","",""
"4bcb2da1e0592","Jock River Landing","3691 Prince of Wales","Nepean","45.2581714","-75.7088283","1","","",""
"4bcb2da1e059d","Joe Jamieson","6940 Bilberry","Cumberland","45.4802822","-75.5253698","1","1","",""
"4bcb2da1e05a7","Joe Rowan","2665 Glenwood","Osgoode","45.2369628","-75.4666583","0","","",""
"4bcb2da1e05b2","Joella","5565 Joella","Osgoode","45.1397902","-75.6038104","0","","",""
"4bcb2da1e05bd","John Gooch","161 Goldridge","Kanata","45.3136115","-75.9265082","1","1","",""
"4bcb2da1e05c7","Josee Anselmo Memorial","6499 Princiotta","Osgoode","45.2444993","-75.5931222","0","","",""
"4bcb2da1e05d2","Judge","837 Grenon Avenue/Judge","Ottawa","45.357215","-75.79838","1","","",""
"4bcb2da1e05dc","Judy Laughton","241 Goldridge","Kanata","45.3163522","-75.9273555","1","1","",""
"4bcb2da1e05e7","Jules Morin/Anglesea","400 Clarence Street","Ottawa","45.4341193","-75.6809235","0","","",""
"4bcb2da1e05f2","Kaladar","2554 Kaladar Avenue/Brookfield","Ottawa","45.374411","-75.672199","1","","",""
"4bcb2da1e05fc","Kars Recreation Centre","1604 Old Wellington","Rideau","45.1496206","-75.6472232","1","1","",""
"4bcb2da1e060a","Karsh","1059 Karsh Drive","Ottawa","45.3725529","-75.6147523","1","","",""
"4bcb2da1e061a","Katimavik Woods","7 Katimavik Rd.","Kanata","45.3143959","-75.8847063","1","1","",""
"4bcb2da1e0624","Katimavik Woods North","4 Katimavik Rd.","Kanata","45.314279","-75.8837296","1","1","",""
"4bcb2da1e062f","Ken Steele","1195 Ogilvie","Gloucester","45.4276703","-75.6279238","1","1","",""
"4bcb2da1e063a","Kenmore Ball","3151 Yorks Corners","Osgoode","45.2326576","-75.4171931","0","","",""
"4bcb2da1e0644","Kennedy-Craig Forest","129 Leikin","Nepean","45.2941106","-75.708038","1","","",""
"4bcb2da1e064f","Kenson","1265 Adirondack Drive","Ottawa","45.3540739","-75.7661978","0","","",""
"4bcb2da1e065a","Keystone","2417 Cleroux","Gloucester","45.4363157","-75.5490528","1","1","",""
"4bcb2da1e0664","Kilborn","1609 Kilborn Avenue","Ottawa","45.3872091","-75.654574","1","","",""
"4bcb2da1e066f","Kilreen","1250 Southwood Drive","Ottawa","45.3467313","-75.7828915","1","","1","Off-leash allowed north of tennis court"
"4bcb2da1e0679","Kimmins Court","250 Walden","Kanata","45.3324593","-75.9170793","1","1","",""
"4bcb2da1e068a","Kinburn Community Centre","3045 Kinburn Side","West Carleton","45.3928498","-76.1869849","1","1","",""
"4bcb2da1e0694","Kincardine","46 Kincardine Dr.","Kanata","45.2912913","-75.8955227","1","1","",""
"4bcb2da1e069f","Kincardine (Westcreek 1)","46 Kincardine","Kanata","45.2912913","-75.8955227","1","1","",""
"4bcb2da1e06a9","Kindle Court","22 Briarcliffe","Gloucester","45.4585319","-75.6180962","1","1","",""
"4bcb2da1e06b4","Kingsmere","2074 Benjamin Avenue/Parkhurst","Ottawa","45.366606","-75.763952","0","","",""
"4bcb2da1e06bf","Kinsella","1600 Prestwick","Cumberland","45.4677113","-75.4976762","1","1","",""
"4bcb2da1e06c9","Kinsmen","27 Elvina","Gloucester","45.4437221","-75.6111243","1","1","",""
"4bcb2da1e06d4","Kittiwake","15 Kittiwake","Goulbourn","45.2684901","-75.9435543","1","1","",""
"4bcb2da1e06de","Kiwanis","395 Levis","Vanier","45.4360754","-75.6529616","0","","",""
"4bcb2da1e06e9","Klondike Road","1365 Halton","Kanata","45.3482637","-75.9379917","1","1","",""
"4bcb2da1e06f3","Knowlton","86 Knowlton","Gloucester","45.2912684","-75.7116906","1","1","",""
"4bcb2da1e0703","La Verendrye","625 Laverendrye","Gloucester","45.460456","-75.598685","1","1","",""
"4bcb2da1e070e","Ladybird","65 Sirocco","Goulbourn","45.2686769","-75.9509237","1","","",""
"4bcb2da1e0719","Lakeview","62 Horner","Nepean","45.3455858","-75.824926","1","1","",""
"4bcb2da1e0723","Langstaff Drive Soccer Fields","192 Langstaff","West Carleton","45.3486733","-76.0348219","1","1","",""
"4bcb2da1e072e","Lansdowne","945 Bank","Ottawa","45.3994738","-75.6863547","1","1","1","Off-leash in dog run"
"4bcb2da1e0739","Larkin","76 Larkin","Nepean","45.2827615","-75.7630318","0","","",""
"4bcb2da1e0743","Laroche","52 Bayview Road","Ottawa","45.4089363","-75.7266033","1","","",""
"4bcb2da1e074e","Larsen","41 Chimo Dr.","Kanata","45.3112912","-75.8872687","1","1","",""
"4bcb2da1e0759","Laumann","2 Laumann","Goulbourn","45.2661606","-75.9356037","1","1","",""
"4bcb2da1e0763","Lavallee Plaza","2655 Monique","Cumberland","45.429665","-75.4856131","1","1","",""
"4bcb2da1e076e","Lavallee Plaza","2655 Monique","Cumberland","45.429665","-75.4856131","","","",""
"4bcb2da1e077c","Lawren Harris","23 Lismer","Kanata","45.3345469","-75.9128637","1","1","",""
"4bcb2da1e0786","Lawson","491 Lawson Avenue/Wolffdale","Ottawa","45.427951","-75.642306","1","","",""
"4bcb2da1e0791","Ledbury","1250 Ledbury Avenue","Ottawa","45.3648019","-75.6581209","1","","",""
"4bcb2da1e079b","Legacy","101 Centrepointe","Nepean","45.344477","-75.762108","1","1","",""
"4bcb2da1e07a6","Leitrim","3290 Leitrim","Gloucester","45.3323005","-75.596337","1","1","",""
"4bcb2da1e07b1","Lenida Drive","2411 Garmil","Rideau","45.1240044","-75.7179163","1","1","",""
"4bcb2da1e07bb","Leslie (Dayton)","31 Abingdon","Nepean","45.3351554","-75.7906583","0","","",""
"4bcb2da1e07c6","Lexington","1404 Lexington Street","Ottawa","45.3694703","-75.7116588","1","0","1","Leash required 8 a.m. to 5 p.m., Monday to Friday"
"4bcb2da1e07d0","Lincoln Heights","171 Lincoln Heights Road","Ottawa","45.3684869","-75.7903357","1","","",""
"4bcb2da1e07e0","Linda Thom","1324 Bank Street","Ottawa","45.3894917","-75.6783099","1","1","",""
"4bcb2da1e07eb","Lindenlea","30 Rockcliffe Way/Rideau Terrace","Ottawa","45.443694","-75.676732","0","","",""
"4bcb2da1e07f8","Linear","153 King Edward","Ottawa","45.4344786","-75.6904867","","","",""
"4bcb2da1e0805","Linton","2987 Linton Road","Ottawa","45.3647986","-75.6692261","1","","",""
"4bcb2da1e081b","Lional Britton","19 Fifth Avenue","Ottawa","45.4032374","-75.6837197","0","","",""
"4bcb2da1e0825","Lions","3302 Huntley","Goulbourn","45.1984265","-75.8407025","","","",""
"4bcb2da1e0810","Lion’s","294 Elmgrove","Ottawa","45.3940174","-75.7532029","0","","",""
"4bcb2da1e0830","Lisa","6 Lisa Avenue/Greenbank","Ottawa","45.28597","-75.7556","0","","",""
"4bcb2da1e083a","Lismer Pines","18 Kimmins","Kanata","45.3326591","-75.9163903","1","1","",""
"4bcb2da1e0845","Lloydalex","66 Lloydalex","Goulbourn","45.2717322","-75.9428672","1","","",""
"4bcb2da1e0851","Lockwood","22 Seguin","Gloucester","45.4451065","-75.6112223","1","1","",""
"4bcb2da1e085c","Logan Lea","51 Steacie","Kanata","45.3351096","-75.9097827","1","1","",""
"4bcb2da1e0865","London Terrace","355 London Terrace","Ottawa","45.4508549","-75.6506952","1","","",""
"4bcb2da1e0875","Long Island Road","5331 Long Island","Rideau","45.2376632","-75.6912956","1","1","",""
"4bcb2da1e0883","Longleaf","5831 Gladewoods Place","Gloucester","45.4413889","-75.5330765","1","1","",""
"4bcb2da1e088c","Longwood/Williams","34 Tanglewood","Nepean","45.3192276","-75.8287916","1","","",""
"4bcb2da1e0897","Louis Perrault","6250 Beausejour","Gloucester","45.4582965","-75.5315143","1","1","",""
"4bcb2da1e08a2","Lowertown Community Centre","40 Cobourg","Ottawa","45.4349034","-75.6807411","","","",""
"4bcb2da1e08ac","Loyola","956 Loyola","Gloucester","45.4522781","-75.5936563","1","1","",""
"4bcb2da1e08b7","Luc Major","956 Billberry","Cumberland","45.4831401","-75.5329492","1","1","",""
"4bcb2da1e08c1","Ludgar Landry","4825 Eighth Line","Gloucester","45.3440079","-75.5202004","1","1","",""
"4bcb2da1e08cc","Lynda Lane","580 Smyth Road/Lynda Lane","Ottawa","45.39587","-75.648249","1","","",""
"4bcb2da1e08d6","Lynwood","7 Sycamore","Nepean","45.3189735","-75.8224059","1","1","",""
"4bcb2da1e08e1","Lytle (Kanata)","10 Beaverbrook","Kanata","45.327618","-75.9035192","1","1","",""
"4bcb2da1e08ef","Lytle (Nepean)","4301 Fallowfield","Nepean","45.2722154","-75.7889179","0","","",""
"4bcb2da1e08fc","Macdonald Gardens","99 Cobourg Street","Ottawa","45.4333212","-75.6790265","1","","1","West side only"
"4bcb2da1e0906","Maclaren","33 Maclaren","Ottawa","45.4190344","-75.6853665","","","",""
"4bcb2da1e0911","Mahoney","160 Lanark Avenue","Ottawa","45.3992795","-75.7504575","0","","",""
"4bcb2da1e091c","Maki","19 Leeming","Nepean","45.3497371","-75.8338181","1","1","",""
"4bcb2da1e0926","Malvern","110 Malvern Dr.","Nepean","45.2810179","-75.7601269","1","1","",""
"4bcb2da1e0931","Manor","100 Braemar Street","Ottawa","45.4503615","-75.655298","0","","",""
"4bcb2da1e093b","Manordale","60 Knoxdale","Nepean","45.3303114","-75.7613013","0","","",""
"4bcb2da1e0946","Maplehill","35 Maplehill","Nepean","45.2504337","-75.7088521","1","","",""
"4bcb2da1e0950","Marathon","210 Linda Loop","West Carleton","45.3614268","-76.1189054","1","1","",""
"4bcb2da1e095b","Marble","2693 Marble Crescent","Ottawa","45.3680197","-75.6813438","1","","",""
"4bcb2da1e0966","Marcel Beriault","1691 Sunview","Gloucester","45.4630602","-75.514172","1","1","",""
"4bcb2da1e0976","Marcel Lalande","2157 Northlands","Cumberland","45.4689838","-75.4755689","","","",""
"4bcb2da1e0981","Marcel Lalonde","2157 Northlands","Cumberland","45.4689838","-75.4755689","1","1","",""
"4bcb2da1e098b","March Central Community Center","1030 Riddell","Kanata","45.3770902","-75.9564424","1","1","",""
"4bcb2da1e0996","Marchand","1163 Kenaston","Gloucester","45.4184268","-75.6242374","1","1","",""
"4bcb2da1e09a1","Marier Avenue","239 Marier","Vanier","45.4376049","-75.6623752","0","","",""
"4bcb2da1e09ab","Marlborough","6836 Malakoff","Rideau","45.0915405","-75.7566429","1","1","",""
"4bcb2da1e09bb","Marquis","1913 Marquis","Gloucester","45.4457144","-75.60226","1","1","",""
"4bcb2da1e09c6","Marsha","855 Lawnsberry","Cumberland","45.4850784","-75.5114809","1","1","",""
"4bcb2da1e09d0","Martinpark","80 Martin","Goulbourn","45.1918726","-75.8349142","","","",""
"4bcb2da1e09db","Mary Scott","6024 Vineyard","Cumberland","45.4724352","-75.5548269","1","","",""
"4bcb2da1e09e8","Mattawa","94 Steeple Chase Dr.","Kanata","45.3009327","-75.8547567","1","1","",""
"4bcb2da1e09f6","Maxime","1434 Ridgebrook","Gloucester","45.4242397","-75.6066935","1","1","",""
"4bcb2da1e0a00","Mayfair","361 Roxdale","Cumberland","45.4719139","-75.4985034","1","1","",""
"4bcb2da1e0a8a","McNabb","160 Percy Street","Ottawa","45.4100899","-75.7020594","1","","1","No dogs 7 a.m. to 6:30 p.m., Monday to Friday. Leash required 7 a.m. to 6:30 p.m. Saturday and Sunday"
"4bcb2da1e0a0b","Mcarthur Arena - Bernard-Grandmaitre Arena","307 Mcarthur","Vanier","45.4316818","-75.6553925","0","","",""
"4bcb2da1e0a16","Mccann","20 Norman Street","Ottawa","45.4005938","-75.7069279","0","","",""
"4bcb2da1e0a20","Mccarthy","3320 Paul Anka Drive","Ottawa","45.3509502","-75.6727715","1","","",""
"4bcb2da1e0a2b","Mccormick","294 Carruthers Avenue/Armstrong","Ottawa","45.403588","-75.725965","0","","",""
"4bcb2da1e0a36","Mcewen","1145 Richmond Road","Ottawa","45.3716708","-75.7805327","1","","",""
"4bcb2da1e0a40","Mcgibbon","62 Mcgibbon Dr.","Kanata","45.3080995","-75.9031277","1","1","",""
"4bcb2da1e0a4b","Mckellar","539 Wavell Avenue/Windermere","Ottawa","45.380825","-75.763232","0","","",""
"4bcb2da1e0a55","Mckellar","539 Wavell","Ottawa","45.3828076","-75.7665375","","","",""
"4bcb2da1e0a60","Mckendry","2567 Dow","Osgoode","45.2355036","-75.4748856","0","","",""
"4bcb2da1e0a70","Mckenna/Jockvale Heritage Bldg.","3131 Jockvale","Nepean","45.2695686","-75.7519922","1","1","",""
"4bcb2da1e0a7b","Mckinley","11 Mckinley","Kanata","45.3510168","-75.9240523","1","1","",""
"4bcb2da1e0a95","Meadow Breeze","98 Meadowbreeze Dr.","Kanata","45.2744311","-75.853151","1","1","",""
"4bcb2da1e0aa0","Meadowbrook (Gloucester)","1485 Meadowbrook","Gloucester","45.4217668","-75.6110747","1","1","",""
"4bcb2da1e0aab","Meadowbrook (Rideau)","2972 Danbury","Rideau","45.1398287","-75.7189222","1","1","",""
"4bcb2da1e0ab6","Meadowlands","1025 Meadowlands Drive/Kintyre","Ottawa","45.365066","-75.71049","1","","",""
"4bcb2da1e0ac0","Meadowvale","1205 Trenton Avenue/Chevrier","Ottawa","45.37905","-75.723188","1","","",""
"4bcb2da1e0acb","Medhurst","72 Medhurst","Nepean","45.3363369","-75.7449009","1","1","",""
"4bcb2da1e0ad6","Merivale Arena","1765 Merivale","Nepean","45.3416024","-75.7279879","1","1","",""
"4bcb2da1e0ae5","Merivale Gardens","25 Bie St.","Nepean","45.322934","-75.7411889","0","","",""
"4bcb2da1e0af2","Metcalfe Community Centre","2785 8Th Line","Osgoode","45.2197231","-75.4643413","0","","",""
"4bcb2da1e0afe","Metz","1450 Metz Crescent","Ottawa","45.4384268","-75.6227002","1","","",""
"4bcb2da1e0b09","Michele","2955 Michele Drive","Ottawa","45.3549466","-75.8006853","0","","",""
"4bcb2da1e0b14","Mill Street Parkette","1140 Mill","Rideau","45.2260807","-75.6838401","1","1","",""
"4bcb2da1e0b1e","Millenium Sports","2135 Trim","Cumberland","45.4638433","-75.4504297","","","",""
"4bcb2da1e0b29","Minto","315 Elgin Street","Ottawa","45.4164249","-75.6891003","1","","",""
"4bcb2da1e0b33","Mohawk","90 Queensline","Nepean","45.344414","-75.8032464","1","1","",""
"4bcb2da1e0b3e","Moloughney","30 Wessex Rd.","Nepean","45.2731367","-75.7530659","0","","",""
"4bcb2da1e0b49","Monk Environmental","695 Goulbourn Forced","Kanata","45.3384522","-75.9308775","1","1","",""
"4bcb2da1e0b53","Monk Meadow","140 Penfield","Kanata","45.3315647","-75.8960665","1","1","",""
"4bcb2da1e0b63","Montgomery Memorial","61 Main Street","Ottawa","45.4127792","-75.6801481","0","","",""
"4bcb2da1e0b6e","Mooney’s Bay","2960 Riverside Drive","Ottawa","45.3675725","-75.6896752","0","","",""
"4bcb2da1e0b79","Morgan’s Grant Woods","50 Flamborough","Kanata","45.3477971","-75.9321888","1","1","",""
"4bcb2da1e0b88","Morriset Ball Diamond","1102 Merivale Road","Ottawa","45.3762736","-75.7332334","1","","",""
"4bcb2da1e0b93","Morrison","1095 Morrison Drive","Ottawa","45.3451711","-75.7958852","1","1","1","Leash required near tennis and basketball courts"
"4bcb2da1e0b9e","Mosquito Creek","36 Ryeburn","Gloucester","45.2813476","-75.697145","1","1","",""
"4bcb2da1e0ba9","Mountain Meadows","3740 Mountain Meadows","Gloucester","45.2851717","-75.6863524","1","1","",""
"4bcb2da1e0bb4","Mowat Farm","100 Fable St.","Nepean","45.2800339","-75.7666365","1","1","",""
"4bcb2da1e0bbe","Munster Community Centre and Dogwood","2890 Munster","Goulbourn","45.1639019","-75.938737","","","",""
"4bcb2da1e0bc9","Munster North","2778 Munster","Goulbourn","45.1684099","-75.9438448","","","",""
"4bcb2da1e0bd4","Murphy","1408 Lowen","Gloucester","45.2953209","-75.6963169","1","1","",""
"4bcb2da1e0be1","Mystery","985 Orleans","Cumberland","45.480537","-75.5394326","1","","",""
"4bcb2da1e0bea","Nairn","141 Kincardine Dr.","Kanata","45.2905358","-75.8951477","1","1","",""
"4bcb2da1e0bf5","Nanaimo","48 Nanaimo","Nepean","45.3427498","-75.799909","0","","",""
"4bcb2da1e0c00","Naskapi Ridge","2051 Naskapi","Gloucester","45.4482935","-75.5968765","1","1","",""
"4bcb2da1e0c0a","Nault","325 St. Denis","Vanier","45.440977","-75.6585088","0","","",""
"4bcb2da1e0c15","Navaho","2031 Navaho Drive","Ottawa","45.360813","-75.7569774","0","","",""
"4bcb2da1e0c1f","Navan Centennial","1279 Colonial","Cumberland","45.4216003","-75.4226729","1","1","",""
"4bcb2da1e0c2a","Navan Memorial Centre (Cc and Arena)","1295 Colonial","Cumberland","45.4217029","-75.4218111","","","",""
"4bcb2da1e0c35","Neill Nesbitt/Foxfield","70 Foxfield","Nepean","45.2863397","-75.7497083","1","1","1","Hill only"
"4bcb2da1e0c3f","Neilson","240 Walden","Kanata","45.3315777","-75.9165252","1","1","",""
"4bcb2da1e0c4a","Nepean Creative Arts Centre","35 Stafford","Nepean","45.3293931","-75.8212339","0","","",""
"4bcb2da1e0c54","Nepean Creek","15 Colonnade","Nepean","45.3433733","-75.7188926","1","0","1","Leash required in west creek section"
"4bcb2da1e0c65","Nepean Creek","15 Colonnade","Nepean","45.3433733","-75.7188926","0","","",""
"4bcb2da1e0c6f","Nepean National Equestrian","401 Corkstown","Nepean","45.3329849","-75.8574129","0","","",""
"4bcb2da1e0c7a","Nepean Sportsplex","1701 Woodroffe Ave.","Nepean","45.3266213","-75.744759","1","1","",""
"4bcb2da1e0c85","Nepean Tent and Trailer Campgounds","411 Corkstown","Nepean","45.3308656","-75.8625849","0","","",""
"4bcb2da1e0c8f","New Edinburgh","193 Stanley Avenue","Ottawa","45.4395003","-75.6865789","1","","",""
"4bcb2da1e0c9a","New Orchard","243 New Orchard Avenue","Ottawa","45.3722654","-75.7780893","0","","",""
"4bcb2da1e0ca4","Ninth Line and Carlsbad Community Centre","5065 Ninth Line","Gloucester","45.3335384","-75.4951621","1","1","",""
"4bcb2da1e0caf","Niven’s Woods","21 Burrows","Gloucester","45.4565647","-75.6174107","1","1","",""
"4bcb2da1e0cba","North Gower Ra/Alfred Taylor Recreation Facility","2300 Community","Rideau","45.1302992","-75.7094411","1","1","",""
"4bcb2da1e0cc4","North Harrow","2 North Harrow","Nepean","45.2774619","-75.7446411","1","","",""
"4bcb2da1e0ccf","North Sawmill Creek","3600 Albion","Gloucester","45.3513845","-75.6416032","1","1","",""
"4bcb2da1e0cdc","North Vineyard","6018 Voyageur","Cumberland","45.4750871","-75.5515315","1","1","",""
"4bcb2da1e0ce6","Notre-Dame Des Champs","3659 Navan","Gloucester","45.4263706","-75.4914564","1","1","",""
"4bcb2da1e0cf1","Oakview","10 Oakview","Nepean","45.3428773","-75.7414869","1","1","",""
"4bcb2da1e0cfb","Ogilvie North","1059 Ogilvie","Gloucester","45.4255254","-75.6336447","1","1","",""
"4bcb2da1e0d06","Ogilvie South","2054 Jasmine","Gloucester","45.4415917","-75.5947663","1","1","",""
"4bcb2da1e0d10","Okanagan","59 Okanagan","Nepean","45.3363726","-75.8023356","1","1","",""
"4bcb2da1e0d1b","Old Forge Com. Centre and Jill Brown","2730 Carling","Ottawa","45.3599445","-75.7938355","","","",""
"4bcb2da1e0d2a","Old March Town Hall","821 March","Kanata","45.3556606","-75.9332998","1","1","",""
"4bcb2da1e0d35","Oldfield","5 Maralisa","Gloucester","45.2798813","-75.7119616","1","1","",""
"4bcb2da1e0d40","Olmstead","26 Viewmount","Nepean","45.342461","-75.7456302","0","","",""
"4bcb2da1e0d4a","Optimiste","43 Ste. Cecile","Vanier","45.4418656","-75.6688855","0","","",""
"4bcb2da1e0d58","Orange Lodge","160 Flamborough","Kanata","45.3528267","-75.9340583","1","1","",""
"4bcb2da1e0d62","Orient","2359 Orient","Gloucester","45.4334163","-75.5539415","1","1","",""
"4bcb2da1e0d6d","Orlando","2347 Orlando Avenue","Ottawa","45.3811127","-75.6594267","0","","",""
"4bcb2da1e0d78","Orlando Annex","2347 Orlando Avenue","Ottawa","45.3811127","-75.6594267","1","","",""
"4bcb2da1e0d82","Orleans Recreation Complex","1490 Youville","Gloucester","45.4656379","-75.5432145","1","1","",""
"4bcb2da1e0d8d","Osborne","21 Osborne Street","Ottawa","45.3896401","-75.6843115","1","","",""
"4bcb2da1e0d98","Osgoode Community Centre","5660 Osgoode Main","Osgoode","45.1484964","-75.6012736","0","","",""
"4bcb2da1e0da2","Osgoode Gardens","5800 Silver Maple","Osgoode","45.2577822","-75.5975971","0","","",""
"4bcb2da1e0dad","Osgoode Village","5701 Philip","Osgoode","45.1477021","-75.5985348","0","","",""
"4bcb2da1e0db8","Ottawa Rowing Club","8 Lady Grey","Ottawa","45.4347566","-75.6997205","","","",""
"4bcb2da1e0dc2","Ottawa South Community Centre","260 Sunnyside","Ottawa","45.3946692","-75.6823252","","","",""
"4bcb2da1e0dcd","Otterson","2960 Otterson Drive","Ottawa","45.3588046","-75.6857346","1","","",""
"4bcb2da1e0ddd","Overbrook","33 Quill Street","Ottawa","45.4246718","-75.6563963","1","","1","East of community centre only"
"4bcb2da1e0de8","Owl","180 Bourbon Street","Ottawa","45.3555449","-75.6625011","1","","",""
"4bcb2da1e0df2","Owl Valley/Shoreline","4180 Owl Valley","Gloucester","45.2789215","-75.6881605","1","1","",""
"4bcb2da1e0dfd","Owlshead","14 Owlshead","Goulbourn","45.1664548","-75.9426436","1","","",""
"4bcb2da1e0e08","Owlshead","14 Owlshead","Goulbourn","45.1664548","-75.9426436","","","",""
"4bcb2da1e0e12","Paget","801 Springland","Ottawa","45.3697592","-75.6849354","","","",""
"4bcb2da1e0e1d","Palmadeo","80 Palmadeo","Nepean","45.2800741","-75.7317056","0","","",""
"4bcb2da1e0e28","Palmerston","1326 Ogilvie","Gloucester","45.4293663","-75.6233321","1","1","",""
"4bcb2da1e0e32","Palsen","7 Palsen","Nepean","45.3481625","-75.7351889","1","1","",""
"4bcb2da1e0e3d","Parkdale","366 Parkdale Avenue/Armstrong","Ottawa","45.403588","-75.725965","0","","",""
"4bcb2da1e0e48","Parkland","2552 Market","Cumberland","45.5165941","-75.4072694","","","",""
"4bcb2da1e0e58","Parkland","1346 De Papillon","Cumberland","45.4843563","-75.4955546","","","",""
"4bcb2da1e0e62","Parkland","300 Blair","Gloucester","45.4077459","-75.6568498","1","1","",""
"4bcb2da1e0e6d","Parkland","25 Richland","Goulbourn","45.179506","-75.8257678","","","",""
"4bcb2da1e0e77","Parkland","5725 Abbott","Goulbourn","45.2661272","-75.9086749","","","",""
"4bcb2da1e0e82","Parkland","85 Hartsmere","Goulbourn","45.2456638","-75.9077197","","","",""
"4bcb2da1e0e8c","Parkland","22 Friendly","Goulbourn","45.2504835","-75.9015317","","","",""
"4bcb2da1e0e97","Parkland","23 Hartsmere","Goulbourn","45.2507313","-75.9034415","1","","",""
"4bcb2da1e0ea2","Parkland","39 Sweetnam","Goulbourn","45.2761012","-75.9152254","1","","",""
"4bcb2da1e0eac","Parkland","48 Bell","Goulbourn","45.2509216","-75.9216924","1","","",""
"4bcb2da1e0eb7","Parkland","6301 Campeau","Kanata","45.3153177","-75.9067588","1","1","",""
"4bcb2da1e0ec1","Parkland","70 Manning","Kanata","45.3274018","-75.926483","1","1","",""
"4bcb2da1e0ecf","Parkland","1234 Johnston","Ottawa","45.3605535","-75.6564286","","","",""
"4bcb2da1e0ed9","Parkland","1612 Kilborn","Ottawa","45.387227","-75.6538969","","","",""
"4bcb2da1e0ee4","Parkland","519 Pleasant","Ottawa","45.3940937","-75.6482479","","","",""
"4bcb2da1e0eee","Parkland","550 Smyth","Ottawa","45.3993252","-75.6480668","","","",""
"4bcb2da1e0ef9","Parkland","41 Warrington","Ottawa","45.3893683","-75.6815222","","","",""
"4bcb2da1e0f08","Parkland","1612 Kilborn","Ottawa","45.387227","-75.6538969","","","",""
"4bcb2da1e0f13","Parkland","17 Warnock","Ottawa","45.4347132","-75.6317527","","","",""
"4bcb2da1e0f1e","Parkland","1264 Plumber","Ottawa","45.4367999","-75.6296157","","","",""
"4bcb2da1e0f28","Parkland","1696 Hunt Club","Ottawa","45.3598863","-75.6312217","","","",""
"4bcb2da1e0f33","Parkland","2050 Hunt Club","Ottawa","45.3640463","-75.6217899","","","",""
"4bcb2da1e0f3d","Parkland","35 Saddle","Ottawa","45.3713016","-75.6081794","","","",""
"4bcb2da1e0f4d","Parkland","1534 Cahill","Ottawa","45.3597215","-75.6388321","","","",""
"4bcb2da1e0f58","Parkland","100 Tapiola","Ottawa","45.3626664","-75.6438325","","","",""
"4bcb2da1e0f63","Parkland","1550 Johnston","Ottawa","45.3677111","-75.6389641","","","",""
"4bcb2da1e0f6d","Parkland","350 Tapiola","Ottawa","45.3671524","-75.6383504","","","",""
"4bcb2da1e0f78","Parkland","3460 Conroy","Ottawa","45.3658919","-75.6202666","","","",""
"4bcb2da1e0f82","Parkland","3460 Conroy","Ottawa","45.3658919","-75.6202666","","","",""
"4bcb2da1e0f8d","Parkland","45 Greenboro","Ottawa","45.3616668","-75.6465151","","","",""
"4bcb2da1e0f97","Parkland","57 Whitestone","Ottawa","45.370214","-75.7387264","","","",""
"4bcb2da1e0fa2","Parkland","99 Central","Ottawa","45.3684443","-75.7372051","","","",""
"4bcb2da1e0fac","Parkland","200 Central","Ottawa","45.3667279","-75.7348979","","","",""
"4bcb2da1e0fb7","Parkland","177 Whitestone","Ottawa","45.3661096","-75.7374138","","","",""
"4bcb2da1e0fc2","Parkland","225 Scout","Ottawa","45.3659725","-75.7413055","","","",""
"4bcb2da1e0fd2","Parkland","1044 Old Prescott","Osgoode","45.2740245","-75.5773757","0","","",""
"4bcb2da1e0fdd","Parkland","233 Wagon","West Carleton","45.479086","-76.0351442","1","1","",""
"4bcb2da1e0fe7","Parkland","2940 Barlow","West Carleton","45.4626135","-75.9721977","1","1","",""
"4bcb2da1e0ff2","Parkland","179 Archie","West Carleton","45.492303","-76.0917591","1","1","",""
"4bcb2da1e0ffd","Parkland","95 Chats","West Carleton","45.4642778","-76.2122149","1","1","",""
"4bcb2da1e1007","Parkland","4703 Northwoods","West Carleton","45.5029993","-76.1157672","1","1","",""
"4bcb2da1e1012","Parkway","2095 Kingsley Road","Ottawa","45.3567213","-75.7749776","1","","1","Leash required northern half"
"4bcb2da1e101c","Parthia","16 Parthia","Nepean","45.3621296","-75.7223931","0","","",""
"4bcb2da1e1027","Parthia","16 Parthia","Nepean","45.3621296","-75.7223931","0","","",""
"4bcb2da1e1032","Patterson’s Creek","Clemow/Glebe/O’connor","Ottawa","45.404299","-75.693764","1","1","",""
"4bcb2da1e103c","Paul Landry","3155 Uplands Drive","Ottawa","45.3480208","-75.6818999","1","","",""
"4bcb2da1e104d","Paul Lindsay","81 Trailway Circle","Goulbourn","45.165549","-75.936266","1","","",""
"4bcb2da1e1057","Pauline Vanier","1015 Harkness Avenue/Kincaid","Ottawa","45.366145","-75.678321","0","","",""
"4bcb2da1e1062","Peace","5555 Osgoode Main","Osgoode","45.1456426","-75.6073943","0","","",""
"4bcb2da1e106c","Peacekeeping Monument","424 Sussex","Ottawa","45.4292035","-75.6965282","","","",""
"4bcb2da1e1077","Petrie Island","727 Trim","Cumberland","45.5050574","-75.4927428","","","",""
"4bcb2da1e1082","Pheasant Run","18 Pheasant Run","Nepean","45.2791985","-75.7754712","1","","",""
"4bcb2da1e108c","Piazza Dante Mini","470 Booth Street","Ottawa","45.4051523","-75.7079694","0","","",""
"4bcb2da1e1097","Pickford","23 Kakulu Rd.","Kanata","45.3094848","-75.883707","1","1","",""
"4bcb2da1e10a2","Pierre Rocque","1070 St. Pierre","Cumberland","45.4755923","-75.5228985","1","1","",""
"4bcb2da1e10ac","Pike","131 Lorry Greenberg Drive","Ottawa","45.3660594","-75.6258791","0","","",""
"4bcb2da1e10b7","Pine Bluff","46P Hesse","Goulbourn","45.2658644","-75.922902","1","","",""
"4bcb2da1e10c5","Pine Hill","Lisgar Rd","Rockcliffe","45.448881","-75.684938","1","","",""
"4bcb2da1e10cf","Pinecrest","2230 Torquay Avenue","Ottawa","45.3474703","-75.7748635","0","","1","Dogs allowed in small area at south west corner"
"4bcb2da1e10da","Pineglen","22 Brisbane Rd.","Nepean","45.3257081","-75.7078791","1","1","",""
"4bcb2da1e10e9","Pineview","1465 Ridgebrook","Gloucester","45.4228519","-75.605318","1","1","",""
"4bcb2da1e10f4","Pinhey’s Point","270 Pinhey Point","Kanata","45.4395307","-75.9541245","1","1","",""
"4bcb2da1e10ff","Playfair","1801 Playfair Drive/Beattie","Ottawa","45.3907993","-75.6441769","1","","",""
"4bcb2da1e110a","Plouffe","130 Preston Street","Ottawa","45.4079299","-75.713956","0","","",""
"4bcb2da1e1114","Pony","246 Equestrian Dr.","Kanata","45.2860901","-75.8649503","1","1","",""
"4bcb2da1e111f","Poole Creek","10 Warner Colpitts","Goulbourn","45.262189","-75.9255078","1","1","",""
"4bcb2da1e112a","Poole Creek Pathway","1395 Main","Goulbourn","45.2625254","-75.9255002","1","1","",""
"4bcb2da1e1134","Porcupine","142 Porcupine","West Carleton","45.4244882","-76.0206717","1","1","",""
"4bcb2da1e1141","Presland","368 Presland Road","Ottawa","45.4239224","-75.649399","1","","",""
"4bcb2da1e114b","Pretty Community Centre","2 Pretty","Goulbourn","45.2587508","-75.9187623","1","1","",""
"4bcb2da1e1156","Priam Way","99 Priam","Nepean","45.315186","-75.8402713","0","","",""
"4bcb2da1e1161","Primrose","179 Primrose Avenue/Rochester North","Ottawa","45.405281","-75.70971","1","","",""
"4bcb2da1e116b","Princess Louise","550 Princess Louise","Cumberland","45.4831228","-75.4947086","1","1","",""
"4bcb2da1e1176","Pumphouse","170 Castlefrank Dr.","Kanata","45.2901107","-75.8799404","1","1","",""
"4bcb2da1e1181","Pushman","1270 Pebble","Ottawa","45.3594941","-75.6491375","","","",""
"4bcb2da1e118b","Qualicum","26 Qualicum","Nepean","45.3376722","-75.7993835","1","1","",""
"4bcb2da1e1196","Quarry","51 Davidson","Gloucester","45.4492058","-75.6107758","1","1","",""
"4bcb2da1e11a1","Queensway","1580 Telesat","Gloucester","45.4279249","-75.6046363","1","1","",""
"4bcb2da1e11ab","Queenswood Heights Centennial","1485 Duford","Cumberland","45.4712235","-75.5085122","1","1","",""
"4bcb2da1e11b6","Queenswood Ridge","346 Kennedy Lane","Cumberland","45.4784026","-75.5048228","1","1","",""
"4bcb2da1e11c6","Quinpool","22 Quinpool","Nepean","45.3179664","-75.8243122","1","1","",""
"4bcb2da1e11d1","Racette","1410 Henri Lauzon","Gloucester","45.4639314","-75.5368312","1","1","",""
"4bcb2da1e11dc","Ralph Street","12 Ralph","Goulbourn","45.4000629","-75.6905017","1","1","",""
"4bcb2da1e11e6","Raoul Wallenberg","397 Viewmount","Nepean","45.3506792","-75.7119088","1","1","",""
"4bcb2da1e11f1","Raphael Brunet","307 St. Patrick Street/Cumberland","Ottawa","45.427443","-75.306022","0","","",""
"4bcb2da1e11fc","Raven","1500 Larose Avenue/Raven","Ottawa","45.377029","-75.738278","1","","1","No dogs west of field house"
"4bcb2da1e1207","Raven","1500 Larose","Ottawa","45.3771397","-75.7400351","","","",""
"4bcb2da1e1211","Ravine","162 Old Colony Rd.","Kanata","45.2931889","-75.87507","1","1","",""
"4bcb2da1e121c","Ray Friel","1585 Tenth Line","Cumberland","45.4714367","-75.4939424","1","","",""
"4bcb2da1e1227","Red Maple","5 Red Maple","Gloucester","45.4372795","-75.5544439","1","1","",""
"4bcb2da1e1231","Red Pine","11 Redpine","Nepean","45.3487262","-75.7219275","1","1","",""
"4bcb2da1e1241","Redpath","155 Redpath","Nepean","45.2868237","-75.709471","1","0","1","Leashed 8 a.m. to 8 p.m."
"4bcb2da1e124c","Reeve Craig","7747 Greenline","Rideau","45.0741092","-75.6441294","1","1","",""
"4bcb2da1e1257","Reeves Site","2238 Reeves Crescent","Ottawa","45.3858045","-75.6579371","0","","",""
"4bcb2da1e1262","Reid","40 Reid Avenue","Ottawa","45.3975765","-75.7222782","0","","",""
"4bcb2da1e126c","Reston","250 Lorry Greenberg Drive","Ottawa","45.3651003","-75.630612","0","","",""
"4bcb2da1e1277","Richelieu","300 Des Peres Blancs","Vanier","45.4439364","-75.6602977","1","1","",""
"4bcb2da1e1281","Richmond Memorial Community Centre and Arena","6095 Perth","Goulbourn","45.1951556","-75.8376344","","","",""
"4bcb2da1e128c","Ricky Place","47 Rickey Pl.","Kanata","45.2910173","-75.8877878","1","1","",""
"4bcb2da1e1297","Rideau River Drive Parkland","1982 Rideau River","Ottawa","45.3990823","-75.6728073","","","",""
"4bcb2da1e12a7","Rideau River Trail","166 Lees","Ottawa","45.4150918","-75.6722621","1","1","",""
"4bcb2da1e12b7","Rideau Veterans Home Memorial","44 Remembrance","Ottawa","45.3994107","-75.6553307","","","",""
"4bcb2da1e12c2","Rideauview","910 Earl Armstrong","Gloucester","45.2745114","-75.6840642","1","1","",""
"4bcb2da1e12cd","Rideauview","960 Eiffel Avenue/Debra","Ottawa","45.367239","-75.705822","1","","",""
"4bcb2da1e12e2","Rideauview","960 Eiffel","Ottawa","45.3679942","-75.7077268","","","",""
"4bcb2da1e12d7","Rideauview Community Centre","4310 Shoreline","Gloucester","45.2767348","-75.6867397","1","1","",""
"4bcb2da1e12ed","Ridge","1943 Elmridge","Gloucester","45.4431217","-75.5989683","1","1","",""
"4bcb2da1e12f7","Ridgemont","1990 Cochrane Street","Ottawa","45.3688725","-75.65672","1","","",""
"4bcb2da1e1302","Ridgeview","119 Placid","Ottawa","45.348057","-75.778306","1","","",""
"4bcb2da1e130d","River","74 Creek","West Carleton","45.4750147","-76.2131312","1","1","",""
"4bcb2da1e1317","Riverain Parc/River Road","400 North River","Vanier","45.4300755","-75.668697","1","1","",""
"4bcb2da1e1322","Riverfront (YMCA Camp)","1730 Sixth Line","Kanata","45.4019682","-75.9225003","1","1","",""
"4bcb2da1e132d","Riverside Memorial","1063 River Road","Ottawa","45.2320862","-75.6720854","0","","",""
"4bcb2da1e133d","Riverside Terrace","225 Clearview Avenue","Ottawa","45.3998274","-75.7526259","1","","",""
"4bcb2da1e1347","Riverview","256 Knox","Ottawa","45.4062229","-75.6555488","1","","",""
"4bcb2da1e1352","Riverwood","22 Kimberwick","Ottawa","45.3421513","-75.6935479","","","",""
"4bcb2da1e135d","Robert","760 Vinette","Cumberland","45.4869153","-75.5168652","1","1","",""
"4bcb2da1e137c","Robert","760 Vinette","Cumberland","45.4869153","-75.5168652","","","",""
"4bcb2da1e1367","Robert Andrew Russell","466 Billings Avenue","Ottawa","45.3951845","-75.6512154","0","","",""
"4bcb2da1e1372","Robert F. Legget","321 Main Street/Clegg Street","Ottawa","45.406053","-75.676786","1","","",""
"4bcb2da1e1387","Robinson Field","3 Hurdman","Ottawa","45.4177492","-75.6687048","","","",""
"4bcb2da1e1391","Rockeries","Hillsdale Rd","Ottawa","45.453357","-75.671877","1","","",""
"4bcb2da1e139c","Rockway","26 Rockway","Nepean","45.3430953","-75.7798956","1","1","",""
"4bcb2da1e13a6","Roland Michener","989 Teron","Kanata","45.3255467","-75.8942795","1","1","",""
"4bcb2da1e13b6","Rooney/Steeplehill","21 Steeplehill","Nepean","45.267258","-75.8277702","1","1","",""
"4bcb2da1e13c1","Rose","310 Bruyere","Ottawa","45.4352772","-75.6883886","","","",""
"4bcb2da1e13cc","Rosetta","31 Rosetta","Gloucester","45.2878514","-75.7068198","1","1","",""
"4bcb2da1e13d6","Roundhay","31 Roundhay","Nepean","45.3278994","-75.7652557","1","1","",""
"4bcb2da1e13e1","Routhier Community Centre","172 Guigues","Ottawa","45.4321349","-75.6919965","","","",""
"4bcb2da1e13ec","Rowe","41 Davis Ave","Kanata","45.3060949","-75.906332","1","1","",""
"4bcb2da1e13f6","Roy","6210 Meadowglen","Gloucester","45.4486829","-75.5306764","1","1","",""
"4bcb2da1e1416","Roy","6210 Meadowglen","Gloucester","45.4486829","-75.5306764","1","1","",""
"4bcb2da1e1401","Roy Duncan","295 Churchill","Ottawa","45.395549","-75.7561083","0","","",""
"4bcb2da1e140c","Roy G. Hobbes","109 Larch","Cumberland","45.4872679","-75.5214936","1","1","",""
"4bcb2da1e1421","Ruisseau","6116 Creek Crossing","Gloucester","45.4377141","-75.5252402","1","1","",""
"4bcb2da1e142f","Russell Boyd","1735 St. Bernard","Gloucester","45.3516133","-75.6258071","1","1","",""
"4bcb2da1e1439","Russvern","2334 Russvern","Rideau","45.1382752","-75.7131527","1","1","",""
"4bcb2da1e1443","Ruth Wildgen","1099 Grenon","Ottawa","45.35153","-75.7963451","","","",""
"4bcb2da1e144e","Ryan Farm","5 Parkglen","Nepean","45.3472465","-75.7525802","1","1","",""
"4bcb2da1e1458","Saddlebrook","160 John Aselford","Kanata","45.3817652","-76.0335714","1","1","",""
"4bcb2da1e1463","Sandalwood","2860 Sandalwood Drive","Ottawa","45.3778014","-75.6491285","1","","",""
"4bcb2da1e146d","Sandy Hill","250 Somerset Street West","Ottawa","45.4167168","-75.6930564","1","","1","No dogs in southern third"
"4bcb2da1e147d","Sawmill Creek Pathway","1599 Goth","Gloucester","45.3486596","-75.6304148","1","1","",""
"4bcb2da1e1488","Sawmill Creek Pool","3380 D’Aoust","Gloucester","45.3491317","-75.6366505","1","1","",""
"4bcb2da1e1497","Sawyer’s Meadow","80 Sawyer Way","Kanata","45.282496","-75.8410109","1","1","",""
"4bcb2da1e14a2","Scisson’s","96 Bridle Park Dr.","Kanata","45.2839692","-75.8495794","1","1","",""
"4bcb2da1e14b2","Seabrook","90 Seabrook Dr.","Kanata","45.3333333","-75.9","1","1","",""
"4bcb2da1e14bc","Senator Eugene Forsey","964 Bronson Avenue","Ottawa","45.3959696","-75.6968648","0","","",""
"4bcb2da1e14c8","Senior Citizen’s Centre","345 Richmond","Ottawa","45.3919747","-75.7542022","","","",""
"4bcb2da1e14d3","Sewell","15 Sewell Way","Kanata","45.3059771","-75.9002808","1","1","",""
"4bcb2da1e14dd","Sharel","1900 Florida Avenue/Connecticut","Ottawa","45.382876","-75.637248","1","","",""
"4bcb2da1e14e8","Shearer","89 Kakulu Rd.","Kanata","45.3063205","-75.892485","1","1","",""
"4bcb2da1e14f3","Sheffield Glen","2320 Southvale Crescent","Ottawa","45.398607","-75.6184167","1","","",""
"4bcb2da1e14fd","Shefford Road Sports Fields","813 Shefford","Gloucester","45.4567459","-75.5917782","1","1","",""
"4bcb2da1e1508","Sheperds Grove","3825 Stonecrest","West Carleton","45.4383262","-76.1170329","1","1","",""
"4bcb2da1e1513","Sherry Lane","39 Sherry Lane","Nepean","45.3280657","-75.7544338","1","1","",""
"4bcb2da1e151d","Shetland","24 Shetland Way","Kanata","45.2983332","-75.865901","1","1","",""
"4bcb2da1e152d","Shirley’s Brook","5 Shirley’s Brook","Kanata","45.3521916","-75.9248593","1","1","",""
"4bcb2da1e1538","Sieveright","2999 Sable Ridge","Gloucester","45.3562052","-75.6347221","1","1","",""
"4bcb2da1e1543","Silverbirch","6105 Silverbirch","Gloucester","45.4422276","-75.5287785","1","1","",""
"4bcb2da1e154d","Sir Wilfred Laurier","288 Chapel Street","Ottawa","45.4276671","-75.6783021","0","","",""
"4bcb2da1e1558","Ski Hill","1995 Naskapi","Gloucester","45.4488487","-75.5999404","1","1","",""
"4bcb2da1e1563","Slate","13 Slate","Goulbourn","45.27197","-75.9044347","1","1","",""
"4bcb2da1e156d","Slate","13 Slate","Goulbourn","45.27197","-75.9044347","","","",""
"4bcb2da1e1578","South","8 South","Gloucester","45.4492047","-75.684953","1","1","",""
"4bcb2da1e15a5","South","9 Southpark","Gloucester","45.4316874","-75.5669486","1","1","",""
"4bcb2da1e1583","South Fallingbrook Community Centre &","998 Valin","Cumberland","45.4715041","-75.4606564","","","",""
"4bcb2da1e158d","South Nepean","700 Longfields","Nepean","45.2798154","-75.7424617","0","","",""
"4bcb2da1e1598","South Nepean","700 Longfields","Nepean","45.2798154","-75.7424617","0","","",""
"4bcb2da1e15af","South River Drive","5495 South River","Rideau","45.2295782","-75.678877","1","1","",""
"4bcb2da1e15ba","South Sawmill Creek","1619 Rosebella","Gloucester","45.3479474","-75.6285415","1","1","",""
"4bcb2da1e15c4","Spratt","4191 Spratt","Gloucester","45.288194","-75.6731535","1","1","",""
"4bcb2da1e15cf","Springhurst","24 Brunswick Street/Brunswick","Ottawa","39.1168485","-94.9994515","0","","",""
"4bcb2da1e15da","St Germain","86 Templeton","Ottawa","45.4216583","-75.6761003","","","",""
"4bcb2da1e15e4","St. Francois","1855 Simard","Gloucester","45.4515339","-75.5201152","1","1","",""
"4bcb2da1e15ef","St. Germain","86 Templeton Street","Ottawa","45.4216583","-75.6761003","1","1","",""
"4bcb2da1e15f9","St. Laurent","714 Morin Street","Ottawa","45.4376426","-75.646136","0","","",""
"4bcb2da1e1604","St. Luke’s","166 Frank Street","Ottawa","45.4153412","-75.6871388","0","","",""
"4bcb2da1e160f","St. Paul’s","469 Donald Street","Ottawa","45.4284158","-75.6474641","1","","1","No dogs near pool play area or ball diamond"
"4bcb2da1e1619","Stanley","1575 Lakeshore","Osgoode","45.2458263","-75.5817356","0","","",""
"4bcb2da1e162a","Stanstead","861 Stanstead Road","Ottawa","45.3622812","-75.6725288","1","","1","No dogs, 8 a.m. to 4 p.m., Monday to Friday"
"4bcb2da1e1634","Star","11 Highmont","Kanata","45.3144013","-75.9188633","1","1","",""
"4bcb2da1e1644","Steve Maclean/Long","1190 Deer","Nepean","45.3613871","-75.7193723","1","1","",""
"4bcb2da1e164f","Stinson","80 Queensbury","Nepean","45.2833849","-75.7290687","0","","",""
"4bcb2da1e165a","Stitt Street","19 Stitt","Goulbourn","45.2578745","-75.9301558","1","1","",""
"4bcb2da1e1664","Stittsville Community Centre and Arena","10 Warner Colpitts","Goulbourn","45.262189","-75.9255078","1","1","",""
"4bcb2da1e166f","Stoneboat","1765 Stoneboat","Cumberland","45.4730887","-75.5317104","1","1","",""
"4bcb2da1e167a","Stonebridge on the Jock","3435 Jockvale","Nepean","45.2603911","-75.7319586","1","","",""
"4bcb2da1e1685","Stonecrest","220 Stoneway","Nepean","45.2869782","-75.7148766","1","","1","No dogs, 8 a.m.-8 p.m."
"4bcb2da1e168f","Stonegate","45 Mcintosh Way","Kanata","45.3024805","-75.9021158","1","1","",""
"4bcb2da1e169f","Stonehenge","1434 Ridgebrook","Gloucester","45.4242397","-75.6066935","1","1","",""
"4bcb2da1e16aa","Stonemeadow","56 Stonemeadow Dr.","Kanata","45.2888389","-75.8457422","1","1","",""
"4bcb2da1e16b5","Strathcona","25 Range Road","Ottawa","45.4285788","-75.6731258","0","","",""
"4bcb2da1e16c0","Stroughton","6 Chelmsford","Goulbourn","45.1680758","-75.9414201","","","",""
"4bcb2da1e16ca","Stuemer","777 Trim","Cumberland","45.5042237","-75.4873138","","","",""
"4bcb2da1e16d5","Sue Nickerson","88 Knudson","Kanata","45.3197793","-75.9051188","1","1","",""
"4bcb2da1e16e0","Sugar Creek","13 Basford","Goulbourn","45.2602896","-75.9354305","1","1","",""
"4bcb2da1e16ea","Sunray","22 Sunray","Goulbourn","45.254737","-75.908443","1","1","",""
"4bcb2da1e16f5","Sutherland Drive","6564 Lewis","Rideau","45.1664598","-75.6368964","1","1","",""
"4bcb2da1e16ff","Sylvia Holden","10 Fifth","Ottawa","45.4035819","-75.6828142","1","","",""
"4bcb2da1e170a","Talcy","1359 Talcy","Cumberland","45.4876412","-75.4796632","","","",""
"4bcb2da1e1717","Tallwood","18 Mattamy","Nepean","45.340672","-75.7598054","0","","",""
"4bcb2da1e1725","Tanglewood","30 Woodfield","Nepean","45.3367784","-75.7307306","1","1","",""
"4bcb2da1e1730","Tanmount","283 Goldridge","Kanata","45.3173522","-75.9261027","1","1","",""
"4bcb2da1e173a","Tauvette","2436 Innes","Gloucester","45.4282664","-75.5730713","1","1","",""
"4bcb2da1e1745","Taylor","5449 Taylor","Osgoode","45.1442898","-75.6127318","0","","",""
"4bcb2da1e174f","Terry Fox","1175 Ste. Therese","Cumberland","45.4743551","-75.539935","1","","",""
"4bcb2da1e175a","Terry Fox Participark","6460 Jeanne D’Arc","Cumberland","45.4787673","-75.5378979","1","1","",""
"4bcb2da1e1765","The Bow of the Jock","3030 Steeplehill","Nepean","45.2472832","-75.8089385","1","","",""
"4bcb2da1e176f","Thorncliffe","45 Provender Avenue","Ottawa","45.4487183","-75.6276587","0","","",""
"4bcb2da1e177a","Tierney","50 Heritage Glen","Nepean","45.276571","-75.7240215","0","","",""
"4bcb2da1e1785","Tierney","50 Heritage Glen","Nepean","45.276571","-75.7240215","0","","",""
"4bcb2da1e178f","Tigheriver Access","1118 Tighe","Rideau","45.2260275","-75.6823807","1","1","",""
"4bcb2da1e17a0","Tillbury","725 Sherbourne Road/Tillbury","Ottawa","45.377684","-75.7591184","0","","",""
"4bcb2da1e17aa","Timagami Court","6695 Marina","Rideau","45.1685579","-75.6394077","1","1","",""
"4bcb2da1e17b5","Timbermere","1080 Carp","Goulbourn","45.322545","-76.028976","","","",""
"4bcb2da1e17bf","Tintern/Sunrise Acres Tot Lot","1314 Tintern","Osgoode","45.2548859","-75.5887896","0","","",""
"4bcb2da1e17ca","Tom Brown","141 Bayview Road","Ottawa","45.4075553","-75.7230287","1","","1","No dogs on soccor pitch"
"4bcb2da1e17d5","Topley","32 Topley","Ottawa","45.3744074","-75.6189608","1","1","",""
"4bcb2da1e17e0","Torbolton Hall/Torbolton Garage","1438 Kinburn Side","West Carleton","45.4476156","-76.0984606","1","1","",""
"4bcb2da1e17ea","Town Center Core","6301 Campeau","Kanata","45.3153177","-75.9067588","1","1","",""
"4bcb2da1e17f5","Trappers","3580 Trapper’s","Gloucester","45.3471164","-75.6444682","1","1","",""
"4bcb2da1e1800","Trend-Arlington","50 Bellman","Nepean","45.3261775","-75.7829","0","","",""
"4bcb2da1e1812","Trevor","5 Trevor Cres","Nepean","45.3161018","-75.8185127","1","","",""
"4bcb2da1e1820","Trevor Vance","129 Goodman","Kanata","45.3775318","-75.9931725","1","1","",""
"4bcb2da1e182a","Trillium","58 Eleanor","Nepean","45.362412","-75.7320713","0","","",""
"4bcb2da1e1835","Trillium","2030 Ogilvie","Gloucester","45.4381186","-75.6018115","1","1","",""
"4bcb2da1e183f","Trillium Woods","700 Goulbourn Forced","Kanata","45.3383248","-75.9307991","1","1","",""
"4bcb2da1e184a","Trojan","901 Trojan Avenue/Gardenvale","Ottawa","45.433589","-75.637995","1","","",""
"4bcb2da1e1854","Troyes","7964 Decarie","Cumberland","45.4854977","-75.5234325","1","","",""
"4bcb2da1e185f","Twin Elm Rugby","4075 Twin Elm","Nepean","45.1934996","-75.7866191","0","","",""
"4bcb2da1e186a","Upcountry","310 Upcountry","Goulbourn","45.245857","-75.910801","1","1","",""
"4bcb2da1e1874","Uplands","3165 Uplands Drive","Ottawa","45.348271","-75.681217","1","","",""
"4bcb2da1e187f","Uplands Riverside","3860 Riverside","Ottawa","45.3380439","-75.6924621","","","",""
"4bcb2da1e1889","Upper Duck Island","2001 Rockcliffe","Gloucester","45.4233759","-75.6961999","1","1","",""
"4bcb2da1e189a","Valleystream East","92 Gladecrest","Nepean","45.3341541","-75.7957453","0","","",""
"4bcb2da1e18a4","Valleystream Tennis Club","3412 Richmond","Nepean","45.3380817","-75.8105359","1","1","",""
"4bcb2da1e18af","Van Rens","8256 Van Rens","Osgoode","45.2310248","-75.4676003","0","","",""
"4bcb2da1e18ba","Van Vliet","1064 Hill","Rideau","45.2261164","-75.6743066","1","1","",""
"4bcb2da1e18c4","Varennes","1595 Varennes","Cumberland","45.4771769","-75.473367","1","","",""
"4bcb2da1e18cf","Varley","56 Varley","Kanata","45.3316577","-75.911335","1","1","",""
"4bcb2da1e18da","Vars Centennial/Alcide Trudeau","5715 Rockdale","Cumberland","45.355602","-75.3526972","1","1","",""
"4bcb2da1e18e4","Vernon","7818 Rideau","Osgoode","45.444419","-75.685669","0","","",""
"4bcb2da1e18ef","Victoria","8215 Victoria","Osgoode","45.2356731","-75.4731204","0","","",""
"4bcb2da1e18fa","Viewmount","230 Viewmount","Nepean","45.3460409","-75.7191852","1","1","",""
"4bcb2da1e1904","Village Green","270 Springfield","Rockcliffe","45.4490631","-75.6786358","1","1","",""
"4bcb2da1e1912","Village Green Memorial","10 Colchester Sq","Kanata","45.3218218","-75.8905986","1","1","",""
"4bcb2da1e191d","Village Square","1517 Stittsville Main","Goulbourn","45.2579859","-75.9203927","1","1","",""
"4bcb2da1e1928","Virgil","9 Virgil","Nepean","45.323903","-75.8237614","1","","",""
"4bcb2da1e1932","Voyageur","6021 Voyageur","Cumberland","45.4748682","-75.5521387","1","","",""
"4bcb2da1e193d","Voyageur","6138 Voyageur","Gloucester","45.478589","-75.5559922","1","1","",""
"4bcb2da1e1948","W. Erskine Johnson Arena","3832 Carp","West Carleton","45.322545","-76.028976","1","1","",""
"4bcb2da1e1952","W.C. Bowes","1251 Halton","Kanata","45.3514607","-75.9426447","1","1","",""
"4bcb2da1e195d","W.C. Levesque Fields","52 Riverstone","Gloucester","45.2620109","-75.7266544","1","1","",""
"4bcb2da1e1968","Walkley/Albion","2930 Albion Road North","Ottawa","45.3737192","-75.6542186","1","","",""
"4bcb2da1e1972","Walter Baker","100 Walter Baker Pl.","Kanata","45.2954556","-75.9016285","1","1","",""
"4bcb2da1e197d","Walter Upton-Collins","894 River","Gloucester","45.2440641","-75.691178","1","1","",""
"4bcb2da1e1998","Watters","841 Clearcrest","Cumberland","45.4809044","-75.4817209","1","1","",""
"4bcb2da1e198a","Watter’s Woods","11 Spinney","Nepean","45.2805255","-75.7254509","1","","",""
"4bcb2da1e19a2","Watts (Creek)","95 Hearst Way","Kanata","45.3166763","-75.8904573","1","1","",""
"4bcb2da1e19ad","Weatherly","2 Maley","Kanata","45.3640143","-75.9701412","1","1","",""
"4bcb2da1e19b8","Wellington Ridge/Blue Rock","6666 Cherrystone","Rideau","45.1560267","-75.6471782","1","1","",""
"4bcb2da1e19c2","Weslock","73 Weslock","Kanata","45.3289379","-75.9143526","1","1","",""
"4bcb2da1e19cf","West Bridle Path","2630 Bridle Path","Gloucester","45.3491258","-75.6498562","1","1","",""
"4bcb2da1e19e8","West Ridge B","73 West Ridge","Goulbourn","45.2586885","-75.9378116","1","","",""
"4bcb2da1e19da","West Ridge a","20 West Ridge","Goulbourn","45.2621537","-75.9414503","1","1","",""
"4bcb2da1e19f2","West River Drive","5506 West River","Rideau","45.2295368","-75.6840562","1","1","",""
"4bcb2da1e19fd","Westboro Beach","234 Atlantis Avenue","Ottawa","45.3967874","-75.7590703","0","","",""
"4bcb2da1e1a0e","Westboro Kiwanis","411 Dovercourt Avenue","Ottawa","45.3830666","-75.753109","0","","",""
"4bcb2da1e1a19","Westcliffe","681 Seyton Dr","Nepean","45.3145512","-75.8351702","0","","",""
"4bcb2da1e1a24","Weston","955 Pleasant Park Road","Ottawa","45.3947362","-75.625393","1","","1","No dogs west of path"
"4bcb2da1e1a32","Westwood","2000 Saville Row","Ottawa","45.3780992","-75.7672943","1","","",""
"4bcb2da1e1a3d","Weybridge","75 Flanders","Nepean","45.2711735","-75.7725096","1","","",""
"4bcb2da1e1a47","Whalen","4111 Kanata","Kanata","45.3218098","-75.9190553","1","1","",""
"4bcb2da1e1a52","White Horse","5484 Old Mill","Gloucester","45.2336959","-75.6796454","1","1","",""
"4bcb2da1e1a5d","Whitehaven/George C. Brown","970 Parkhaven","Ottawa","45.361484","-75.7757122","","","",""
"4bcb2da1e1a67","Whiterock","1245 Matheson","Gloucester","45.4320793","-75.6262125","1","1","",""
"4bcb2da1e1a72","Whitewood Avenue","5490 Whitewood","Rideau","45.2236885","-75.6936625","1","1","",""
"4bcb2da1e1a7c","Wilfred Murray/Kennedy Arena","1115 Dunning","Cumberland","45.5142315","-75.4039436","1","1","",""
"4bcb2da1e1a8d","Willand Lane Woods","132 Willand","West Carleton","45.4788193","-76.0805583","1","1","",""
"4bcb2da1e1a97","Williams","34 Tanglewood","Nepean","45.3192276","-75.8287916","0","","",""
"4bcb2da1e1aa2","Wincanton","489 Lawler","Cumberland","45.4891821","-75.5010158","1","1","",""
"4bcb2da1e1aac","Windfield","6 Windfield","Nepean","45.2902914","-75.8497862","1","1","",""
"4bcb2da1e1ab7","Winding Way","56 Winding","Nepean","45.2859789","-75.6993831","0","","",""
"4bcb2da1e1ac2","Windsor","1B Windsor Street","Ottawa","45.393243","-75.6774436","1","1","1","Leash required along river path"
"4bcb2da1e1acc","Windsor Gloucester","3560 Wyman","Gloucester","45.3449961","-75.657822","1","1","",""
"4bcb2da1e1ad7","Winterwood","1844 Johnston","Ottawa","45.3692989","-75.629314","","","",""
"4bcb2da1e1ae1","Winthrop","3306 Carling","Nepean","45.3496429","-75.8252745","1","1","",""
"4bcb2da1e1aec","Woodburn","1819 Stonehenge","Gloucester","45.4197908","-75.6025392","1","1","",""
"4bcb2da1e1af7","Woodhill","11 Woodhill","Gloucester","45.4340133","-75.57242","1","1","",""
"4bcb2da1e1b01","Woodroffe","180 Lockhart Avenue/Knightsbridge","Ottawa","45.377794","-75.77107","1","","",""
"4bcb2da1e1b0e","Wydlewood","24 Wintergreen","Goulbourn","45.2630127","-75.9209351","1","","",""
"4bcb2da1e1b18","Young’s Pond","177 Mccurdy Dr.","Kanata","45.2987925","-75.8973874","1","1","",""
"4bcb2da1e1b23","Youth Gym and 55 Plus Club","1463 Prince of Wales","Ottawa","45.3676196","-75.7010411","","","",""
"4bcb2da1e1b2e","Yves Chenier","3585 Sarsfield","Cumberland","45.4397204","-75.3431407","1","1","",""
"4bcb2da1e1b38","Yves Richer","499 Des Epinettes","Cumberland","45.4621435","-75.5055517","1","","",""
